userId,userName,userEmail,addressId,addressFull,postalCode,latitude,longitude,schoolId,schoolName,educationLevel,ppdbInfoId,academicYear,capacityZonasi,avgApplicantsZonasi,capacityPrestasi,avgApplicantsPrestasi,capacityAfirmasi,avgApplicantsAfirmasi,capacityPerpindahanOrtu,avgApplicantsPerpindahan,zoningRadiusKm,minAvgScorePrestasi
48d53af5-45b7-48ad-96df-5c5447150b32,Admin Junior High School 41 Semarang,juniorhighschool41semarang@yopmail.com,e389b527-e9b1-419d-845d-7ceb4981a3f4,"W9H5+47W, Jl. Cepoko Utara, RT.04/RW.01, Cepoko, Kec. Gn. Pati, Kota Semarang, Jawa Tengah 50223, Indonesia",50223,-7.0721368,110.358215,8c8b86c0-3a79-40b5-a266-118290a445bb,Junior High School 41 Semarang,SMP,ee249cad-9334-4a89-9bee-99f1b60ac8e6,2024/2025,45,80,20,25,8,10,6,19,3.0,81.41
1830c66b-0864-4f97-ad46-71219414aab3,Admin SMPN 18 Semarang,smpn18semarang@yopmail.com,3e5808f9-003b-4913-848a-a93fe51a2de1,"Jl. Purwoyoso 1 No.19, Purwoyoso, Kec. Ngaliyan, Kota Semarang, Jawa Tengah 50184, Indonesia",50184,-6.9883235,110.3622487,6e37998c-c93a-4984-94bd-0bcfc8424d2e,SMPN 18 Semarang,SMP,50d72278-3996-45a0-ad9f-c419a2bd6013,2024/2025,31,96,16,30,6,20,4,8,1.0,70.21
6c78ff41-db85-489e-a491-dba851d8466b,Admin State Junior High School 30,statejuniorhighschool30@yopmail.com,e2f7b8f4-9cb2-4808-8524-99f5e38b2972,"Jl. Amarta Raya No.21, Krobokan, Kec. Semarang Barat, Kota Semarang, Jawa Tengah 50141, Indonesia",50141,-6.9791868,110.3972222,be12e28a-f52b-4b63-91ca-dd9c5dbf5f85,State Junior High School 30,SMP,fbde1c5d-eb1e-4434-b827-a99e2736c62b,2024/2025,43,112,11,18,14,10,10,20,1.3,82.66
325b7fa3-0ce7-495a-a8b9-a5a9821bce28,Admin SMP Kartiyoso Semarang,smpkartiyososemarang@yopmail.com,ddbc7a20-a74a-478e-b4bc-4fe935fff150,"Jl. Taman Progo No.13, Mlatibaru, Kec. Semarang Tim., Kota Semarang, Jawa Tengah 50122, Indonesia",50122,-6.9688856,110.4361483,532d652e-f9a2-47fb-b5ac-072bada7f005,SMP Kartiyoso Semarang,SMP,f514db3d-1324-404d-9e4a-bd5b0033f021,2024/2025,38,145,5,59,13,20,10,6,1.1,82.75
950aad97-9a5b-49b7-adb9-fff27e753b7f,"Admin Junior High School 28, Semarang",juniorhighschool28semarang@yopmail.com,9cf899c1-b340-4ce0-a586-eed12b720105,"27MX+78C, Jl. Kyai Gilang, Mangkang Kulon, Kec. Tugu, Kota Semarang, Jawa Tengah 50188, Indonesia",50188,-6.9668199,110.2982597,e1840dd3-24e1-483c-88d6-8c1c23bc5c08,"Junior High School 28, Semarang",SMP,9199dce7-17ba-4fc9-ab9f-21404952e1cd,2024/2025,41,82,5,31,14,20,7,13,1.7,77.8
234c6ebc-198b-4b59-885a-21c2083b9897,Admin SMP Negeri 40 Semarang,smpnegeri40semarang@yopmail.com,1079bd95-51c4-4c50-bb6f-335d32964d17,"Jl. Suyudono No.130, Barusari, Kec. Semarang Sel., Kota Semarang, Jawa Tengah 50245, Indonesia",50245,-6.9895263,110.4046316,d9314a2c-9c0d-4879-9cc6-edfe63a7794d,SMP Negeri 40 Semarang,SMP,d922106f-017f-4f21-9ff1-be7268e14c1a,2024/2025,45,108,18,46,14,30,10,7,1.9,75.64
e6c2a5ba-4e61-40cb-bf5e-a90513570c55,Admin SMP Nusaputera,smpnusaputera@yopmail.com,4c2bc120-9457-4820-8e3a-3bc68d36ee90,"Jl. Ki Mangunsarkoro No.59, Gabahan, Kec. Semarang Tengah, Kota Semarang, Jawa Tengah 50135, Indonesia",50135,-6.980815,110.42848,83ff9245-0d31-45c3-ad2b-60a883c181d1,SMP Nusaputera,SMP,4ce5ad1a-3bef-4e0e-97bb-2567bf2dea0b,2024/2025,33,97,7,39,9,25,5,14,2.8,82.84
d8a29075-c4b7-4ed7-8ca9-3d417ef3b83a,Admin Maria Goretti Junior High School,mariagorettijuniorhighschool@yopmail.com,11a883ad-3f5b-4b01-ae8d-e7f0c360fcc0,"Jl. Imam Bonjol No.198, Sekayu, Kec. Semarang Tengah, Kota Semarang, Jawa Tengah 50132, Indonesia",50132,-6.9810007,110.4107499,21882cca-1226-4f31-91c7-b99125f18351,Maria Goretti Junior High School,SMP,35316c14-eb2b-4b2d-b5f0-7c6d4e7ee1a4,2024/2025,49,111,11,25,14,20,10,18,2.4,82.23
aeb4c313-5644-46ea-970e-a9238c65bcaa,Admin SMP Negeri 3 Semarang,smpnegeri3semarang@yopmail.com,f71fa52b-9669-4c85-bcd9-2595f211098f,"Jl. Mayor Jend. D.I. Panjaitan No.58, Brumbungan, Kec. Semarang Tengah, Kota Semarang, Jawa Tengah 50135, Indonesia",50135,-6.9854422000000005,110.4266381,410c866a-9ab1-4c32-b43d-d50c3b0ad76e,SMP Negeri 3 Semarang,SMP,ac5f2225-ada7-44e2-a7b4-7d8f6236b53b,2024/2025,53,93,14,56,9,22,4,14,2.5,86.4
3136cac6-b74c-4d50-84cb-62017626f4fa,Admin SMP N 10 Semarang,smpn10semarang@yopmail.com,a57382a9-b285-46a8-b1e2-6a2dbd1b6c04,"Jl. Menteri Supeno No.1, Mugassari, Kec. Semarang Sel., Kota Semarang, Jawa Tengah 50249, Indonesia",50249,-6.991294399999999,110.4164104,87bf84e0-d83e-4320-9a36-81bcfd907b5b,SMP N 10 Semarang,SMP,9e15beaf-b379-4925-b2ba-eb2d1c16e383,2024/2025,55,128,18,46,13,14,10,10,2.6,79.2
8418f638-1b9e-470c-86ac-600199393312,Admin SMP PGRI 5 Semarang,smppgri5semarang@yopmail.com,d7237fef-535a-420f-9b96-0deceff8ff74,"Wonolopo, Mijen, Semarang City, Central Java 50215, Indonesia",50215,-7.0567501,110.313179,c09920af-ddec-4df2-9fc9-46e9772c57db,SMP PGRI 5 Semarang,SMP,891dd56b-d3f8-4786-bd3e-e17bf27c0154,2024/2025,51,114,19,35,7,14,3,16,2.6,75.38
d95c8ddb-90e7-466c-96a0-586776883dd5,Admin SMP Negeri 42 Semarang,smpnegeri42semarang@yopmail.com,205985c9-889c-464b-8a5f-c0e6b90f29dc,"XF4J+XJX, Jl. Klipang Raya, Sendangmulyo, Kec. Tembalang, Kota Semarang, Jawa Tengah 50272, Indonesia",50272,-7.0425017,110.4815971,b8e37082-c872-4a58-84c5-c05e1d6756b8,SMP Negeri 42 Semarang,SMP,e6da478c-71ea-4bd3-9bb8-0cbbd55e97e5,2024/2025,41,111,12,40,9,18,9,19,2.1,75.89
95bdf5ac-0d1f-4776-b7cd-253cd2df54ea,Admin SMP Kebon Dalem,smpkebondalem@yopmail.com,a47bb236-c9e6-4112-85ab-3dc1c3d75fb6,"XFC5+57X, Jl. Arum Sari Raya, Sambiroto, Kec. Tembalang, Kota Semarang, Jawa Tengah 50276, Indonesia",50276,-7.0295143,110.4582242,41b666f6-ec0b-40a0-ba23-8e77d860b4d2,SMP Kebon Dalem,SMP,1bb2a720-cc40-4253-8edc-aaa6e9c76344,2024/2025,55,119,13,34,5,28,7,14,2.9,78.96
c3b28af8-ab50-419b-b559-8b2e34b8a93a,Admin Yohanes XXIII Junior High School,yohanesxxiiijuniorhighschool@yopmail.com,495fe126-b3ec-4c02-9e23-ee2b038c852f,"Jl. Dr. Wahidin No.110, RT.6/RW.11, Kaliwiru, Kec. Candisari, Kota Semarang, Jawa Tengah 50253, Indonesia",50253,-7.022083599999999,110.4230397,82f91898-a8a7-452e-b4ba-bca80e34ba02,Yohanes XXIII Junior High School,SMP,e116e324-0409-4bb4-aa84-aa3ed8410516,2024/2025,57,126,6,41,5,20,3,19,1.2,84.54
0ace58d6-3da1-4dcc-9883-4fb9ec0356b6,Admin Junior High School 20 Semarang,juniorhighschool20semarang@yopmail.com,41ac375d-a63b-4f54-b405-bf5def0aa1be,"2FP9+R65, Jl. Kapas Utara Raya II, Gebangsari, Kec. Genuk, Kota Semarang, Jawa Tengah 50115, Indonesia",50115,-6.9629925,110.4681104,4c42009d-af92-4080-adc5-f78f91921fec,Junior High School 20 Semarang,SMP,d8d7a854-1aaa-4304-8374-8b0c5d80dfd2,2024/2025,49,147,18,33,11,29,6,11,2.9,85.64
027f2b3b-2b57-4cf7-824e-90086be332c0,Admin SMP Hasanuddin 6,smphasanuddin6@yopmail.com,06430d07-fd70-45cc-94c8-de591c263afe,"Jl. Tugurejo Raya No.KM. 9, Tugurejo, Kec. Tugu, Kota Semarang, Jawa Tengah 50151, Indonesia",50151,-6.9819282,110.3515372,49a73dfc-58cc-4604-96d6-b23a718b3fbb,SMP Hasanuddin 6,SMP,d5c09161-6379-4047-a8f7-8fbeae275dab,2024/2025,57,144,19,54,14,11,7,14,3.0,79.27
a9022e73-b205-437e-85a7-f89feba710b7,Admin SMP dan SMA Daniel Creative Semarang (DCS),smpdansmadanielcreativesemarang(dcs)@yopmail.com,f0744206-7eb7-4aae-8f46-e5398e335239,"Kompleks, Jl. Madukoro Raya Jl. Semarang Indah No.Kav. 3 Blok F, RW.4, Tawangmas, Kec. Semarang Barat, Kota Semarang, Jawa Tengah 50144, Indonesia",50144,-6.9638575,110.3993026,7570dde5-ee6a-4473-9b70-03b64006998e,SMP dan SMA Daniel Creative Semarang (DCS),SMP,2acfef6d-25e3-4d88-b9b5-bbf7c734ee7a,2024/2025,52,97,7,32,6,11,6,12,1.4,82.22
90a253bc-1fd2-482e-a00a-e96ea76f3efb,Admin SMA - SMK - SMP SETIABUDHI SEMARANG,sma-smk-smpsetiabudhisemarang@yopmail.com,c76706cb-38ed-42bc-ac82-b54caa618323,"Jl. Wr. Supratman No.37, Kalibanteng Kidul, Kec. Semarang Barat, Kota Semarang, Jawa Tengah 50149, Indonesia",50149,-6.989916,110.385248,edaf1abd-00b8-4268-9853-7743b348573e,SMA - SMK - SMP SETIABUDHI SEMARANG,SMP,e5e5d2eb-c502-4f22-b827-b17d9b25e194,2024/2025,35,131,16,21,6,29,5,15,2.2,81.63
1b694276-158c-4152-a077-7bfe7fcb3746,Admin Junior High School Marsudi Utami,juniorhighschoolmarsudiutami@yopmail.com,99cbe7a1-7e64-4ecf-80f2-7510cd871d29,"Jl. Untung Suropati No.9, Manyaran, Kec. Semarang Barat, Kota Semarang, Jawa Tengah 50147, Indonesia",50147,-7.0087151,110.385673,77621180-e0af-41f9-8479-5174d1a23307,Junior High School Marsudi Utami,SMP,e29b8944-77e6-41c9-b792-96c8d63fd190,2024/2025,55,95,9,49,15,29,6,9,1.0,78.68
53455217-d51e-4fe5-852f-9c7d246f995f,Admin SMP Negeri 8 Semarang,smpnegeri8semarang@yopmail.com,f9339b54-5eb2-44b3-9afa-d6cdfc9dad01,"Jl. Cinde Raya No.18, Jomblang, Kec. Candisari, Kota Semarang, Jawa Tengah 50256, Indonesia",50256,-7.0112354,110.4366138,b5592d1c-3958-4eb7-8e83-1f0cd41cf699,SMP Negeri 8 Semarang,SMP,29c9f43c-ecc5-46e8-89c3-d7cee754d7eb,2024/2025,32,150,7,35,13,20,9,7,1.1,82.0
ffae45d6-285e-4b89-9ffa-aba6ab89e775,Admin SD Negeri Gisikdrono 02,sdnegerigisikdrono02@yopmail.com,bd02c42a-727a-4b81-86af-c0ec6e85fccb,"JL. Kumudasmoro, 295Q+29G, Gisikdrono, Kec. Semarang Barat, Kota Semarang, Jawa Tengah 50149, Indonesia",50149,-6.992441,110.3884416,9fcb90b8-387c-4b19-b250-fd81caaf6085,SD Negeri Gisikdrono 02,SD,9cedd1c0-4415-4d19-9d72-ef004241e85c,2024/2025,58,137,19,23,5,30,6,9,2.3,86.3
ac1af914-9543-4233-af7f-61c8b08e730f,Admin Elementary School Hj. Isriati Baiturrahman 2,elementaryschoolhjisriatibaiturrahman2@yopmail.com,0adcd958-dc28-4f58-a582-0f8d547a1bf9,"Jl. Abdul Rahman Saleh No.285, Kalipancur, Kec. Ngaliyan, Kota Semarang, Jawa Tengah 50183, Indonesia",50183,-7.0100687,110.3780738,b4be5bb8-4ece-4d9f-8c60-cc31dce7625c,Elementary School Hj. Isriati Baiturrahman 2,SD,95f2ae69-78d1-4213-a74f-674f776721c2,2024/2025,44,114,18,29,15,25,10,7,1.1,75.23
190f864b-4afc-48b5-b402-3c6803e872a2,Admin SD Islam DaQu School Semarang,sdislamdaquschoolsemarang@yopmail.com,891a730e-3fd3-48cf-a464-1f97ca6f2093,"Jalan Dokter Cipto No.11, RW.05, Kebonagung, Kec. Semarang Tim., Kota Semarang, Jawa Tengah 50123, Indonesia",50123,-6.9718128,110.4336282,e5bd47c6-db53-4af1-bbcf-119c34a34cc0,SD Islam DaQu School Semarang,SD,a242cd86-8606-489e-ba34-8b49560facb5,2024/2025,51,116,17,39,7,18,7,14,2.3,79.26
8031ee12-a8cc-43a2-aafe-9c6ce4a963bb,Admin SD Islam Sultan Agung 01,sdislamsultanagung01@yopmail.com,c723dfd1-add7-478e-8aea-b4abaaa51b10,"2CHC+5W7, Jl. Pemuda, Bangunharjo, Kec. Semarang Tengah, Kota Semarang, Jawa Tengah 50139, Indonesia",50139,-6.972093999999999,110.4223015,95ca3bde-49e3-4c85-afbd-780d3b78124a,SD Islam Sultan Agung 01,SD,12e9ea09-8bd5-405b-898e-655729db2cbb,2024/2025,50,140,6,44,6,29,10,17,2.1,70.93
85c5748f-e7ac-4611-83f6-b04a5db67d0a,Admin Semesta Bilingual Elementary School,semestabilingualelementaryschool@yopmail.com,ce71077c-4636-44fe-b4a7-0177d87f8f60,"Jl. Setia Budi No.116, Srondol Kulon, Kec. Banyumanik, Kota Semarang, Jawa Tengah 50269, Indonesia",50269,-7.053972,110.4165911,f464e99a-10ab-41dc-99d5-ddecb04bfb74,Semesta Bilingual Elementary School,SD,427e0f3f-3584-4c47-b9d8-338eeccea8de,2024/2025,37,92,7,22,7,27,2,20,2.3,86.72
ceba970a-260b-41c4-abac-97828c5aa7e2,Admin SD MUHAMMADIYAH 07 SEMARANG,sdmuhammadiyah07semarang@yopmail.com,26e75be7-1337-428f-ab16-7ee018191409,"Jl. Pusponjolo Tengah II No.23, Cabean, Kec. Semarang Barat, Kota Semarang, Jawa Tengah 50141, Indonesia",50141,-6.982724,110.397798,1fa7eb4b-9cc6-48bb-a779-b01e2b8fb9a3,SD MUHAMMADIYAH 07 SEMARANG,SD,9c3eeed5-0471-4150-970b-e79d0ce4a64d,2024/2025,37,98,5,49,14,19,7,13,1.6,74.96
72eb59b9-4eb7-4df5-bf7f-69e8a6f956af,Admin Sekolah Dasar Islam Terpadu Al Qolam,sekolahdasarislamterpadualqolam@yopmail.com,0b191d1c-564f-4656-8d71-c9892da4ac97,"293X+2V8, Jl. Gedung Batu Tengah V, RT.1/RW.5, Ngemplak Simongan, Kec. Semarang Barat, Kota Semarang, Jawa Tengah 50148, Indonesia",50148,-6.9974519,110.3997003,fc960d44-10da-4348-b190-38ea182467e2,Sekolah Dasar Islam Terpadu Al Qolam,SD,880b2628-dfc9-405c-8bf1-dcfea91b9d1d,2024/2025,37,103,13,60,8,28,7,7,1.9,84.97
948b292d-c4a3-4db0-8cae-9ae3abd261a2,Admin State Primary School Kalibanteng Kidul 02,stateprimaryschoolkalibantengkidul02@yopmail.com,ac30327a-177d-4d0f-b937-087ca992416a,"Jl. Taman Sri Rejeki Timur III No.01, Kalibanteng Kidul, Kec. Semarang Barat, Kota Semarang, Jawa Tengah 50149, Indonesia",50149,-6.995009,110.38082620000002,9565bcc0-c414-44ff-b711-7587e6f21c51,State Primary School Kalibanteng Kidul 02,SD,38a47a19-3d60-4b4c-a3eb-5d91386cd01b,2024/2025,48,91,5,15,5,30,7,10,1.4,74.11
372b929b-9838-4a84-8744-b4f7884c75b9,Admin Sekolah Dasar Miroto 01,sekolahdasarmiroto01@yopmail.com,577cfd67-dff0-434a-be75-eaf50f754f3c,"Jl. Seteran Utara No.17, Miroto, Kec. Semarang Tengah, Kota Semarang, Jawa Tengah 50134, Indonesia",50134,-6.983188900000001,110.419897,981232ea-184a-4d24-9ce2-837e2fc0d6fd,Sekolah Dasar Miroto 01,SD,27fcaa8f-e660-4a07-a183-9c24c8d3f2c8,2024/2025,56,93,17,31,8,29,9,9,2.1,87.0
62bdd59e-5366-42fb-8b01-b851abc2a3bf,Admin Sekolah Dasar Negeri Lamper Tengah 01,sekolahdasarnegerilampertengah01@yopmail.com,f2a823ba-335b-4027-9681-ad6865bab4aa,"XCWR+5XQ, Jl. Kedondong Dalam VI, Lamper Tengah, Kec. Semarang Sel., Kota Semarang, Jawa Tengah 50248, Indonesia",50248,-7.0045411,110.4424754,9cfc43d0-4549-4b18-8788-0d5c182f42a7,Sekolah Dasar Negeri Lamper Tengah 01,SD,ae2dad97-1c2d-48af-99e7-5789e130c6f6,2024/2025,47,81,8,33,14,25,6,19,2.8,70.47
7de6326f-1297-4e49-8cfd-ce3130574b00,Admin SD Supriyadi,sdsupriyadi@yopmail.com,8923b4b6-7b47-4044-a5a1-c049c6c30bb2,"Jl. Supriyadi No.7-11, Kalicari, Kec. Pedurungan, Kota Semarang, Jawa Tengah 50198, Indonesia",50198,-7.0040084,110.4551166,62b56348-42bc-41f9-8025-d0ad9f4a7b41,SD Supriyadi,SD,34ade92e-182a-44c4-9fdb-8d54dc98f6c0,2024/2025,45,111,6,30,11,20,5,10,2.5,71.22
2c3eabff-a868-4889-bdb6-96ab5c245520,Admin SD Islam Al Huda,sdislamalhuda@yopmail.com,cc60fb1e-e65d-4715-b86b-5686f60343ed,"Jl. Tumpang Raya No.103a, Petompon, Kec. Gajahmungkur, Kota Semarang, Jawa Tengah 50237, Indonesia",50237,-7.0051633,110.3981141,cf2fea1f-d638-4a14-8932-31b0a64637f9,SD Islam Al Huda,SD,494eaf47-51a7-4ccd-887e-2b3e862355e5,2024/2025,30,93,20,28,6,22,3,11,2.6,89.35
8715ed09-3418-40ae-ad98-527db8662354,Admin Nasima Elementary School,nasimaelementaryschool@yopmail.com,22779e4e-994c-4b23-b37e-680046e9f7db,"Jl. Puspanjolo Selatan No.53, Bojongsalaman, Kec. Semarang Barat, Kota Semarang, Jawa Tengah 50141, Indonesia",50141,-6.9867153,110.3992632,b400de15-2839-455b-b845-1f93ef21df1d,Nasima Elementary School,SD,e645c0eb-f456-47b2-aca9-21b5cd6fa877,2024/2025,44,92,13,22,11,13,8,17,3.0,79.5
e37cc19a-7974-463b-b488-86682d0ee24d,Admin Integrated Islamic Elementary School Bunayya,integratedislamicelementaryschoolbunayya@yopmail.com,5aabb679-4fac-40c0-99e4-95ad6771e354,"Jl. Jangli Krajan No.27 blok E, Karanganyar Gn., Kec. Candisari, Kota Semarang, Jawa Tengah 50255, Indonesia",50255,-7.0285701,110.4308627,b27c8935-575b-4145-ba31-6b8d6a6e5bf0,Integrated Islamic Elementary School Bunayya,SD,8c12b5ce-2316-4f9f-87bc-c776f1352943,2024/2025,39,132,16,21,9,18,6,18,2.2,87.18
bf5fe966-6af8-49f7-8b3f-879e11d3b9e7,"Admin St Joseph Catholic Elementary School, Peterongan",stjosephcatholicelementaryschoolpeterongan@yopmail.com,8db11fda-940e-4295-ae21-e86d6e54f9f0,"Jl. Mataram No.874, Peterongan, Kec. Semarang Tengah, Kota Semarang, Jawa Tengah 50241, Indonesia",50241,-6.996168099999999,110.4326968,471560cf-e45a-4ae1-82ee-8870a64c3300,"St Joseph Catholic Elementary School, Peterongan",SD,44d41c4a-2ff8-44bb-9221-2f7846b4aab1,2024/2025,55,96,12,33,10,12,4,10,2.2,74.44
9bcdb20c-dc94-4fac-967a-b5e94a5a217b,Admin Islamic Primary School Tunas Harapan,islamicprimaryschooltunasharapan@yopmail.com,90d82bc7-d3a6-48b1-8527-8a84e2ce234e,"Jl. Tulus Harapan No.1, Sendangmulyo, Kec. Tembalang, Kota Semarang, Jawa Tengah 50272, Indonesia",50272,-7.0353977,110.4720548,af57e4a4-e30f-46e3-9d17-bd21e69c50cb,Islamic Primary School Tunas Harapan,SD,a3b8ce7b-882d-4391-ab7a-a9704fa6ce31,2024/2025,33,118,12,58,5,19,4,11,2.2,85.07
da488d10-8df0-4596-bbbd-3da2238215bd,Admin SD Kusuma Bhakti,sdkusumabhakti@yopmail.com,e5c399d7-b0d9-40ca-8364-da340356b1c7,"Jl. Kebonharjo Raya RT 01/RW 07, Semarang Utara, Jl. Kebonharjo Raya Gang Rajawali No.1, RT.10/RW.6, Tj. Mas, Kec. Semarang Utara, Kota Semarang, Jawa Tengah 50174, Indonesia",50174,-6.959056599999999,110.4293043,546e7947-20b0-49e5-895f-4c70ed1dee20,SD Kusuma Bhakti,SD,b56a7c3a-2833-41ae-be17-7d7fbf4199e1,2024/2025,47,85,10,25,13,25,8,5,1.2,89.71
ae54ec7c-ab31-438d-bf12-9ff648f67086,Admin Sambiroto 01 State Elementary School,sambiroto01stateelementaryschool@yopmail.com,dc6105d0-553a-4b0d-9b13-eb6e87c2c551,"XFF5+GW4, Jl. Sambiroto Raya, Sambiroto, Kec. Tembalang, Kota Semarang, Jawa Tengah 50276, Indonesia",50276,-7.026246,110.4598298,fdac6cea-2035-46ed-b5a2-839745b5fffd,Sambiroto 01 State Elementary School,SD,09f7b335-e04e-40e9-90b9-f8b12a57b0cd,2024/2025,41,123,19,31,7,23,3,14,1.0,85.32
34b6d221-ebb3-4730-a935-7dacb106709b,Admin SD Kanisius Pekunden Leadership School,sdkanisiuspekundenleadershipschool@yopmail.com,69bf87f0-627f-474f-b5aa-ca8d67edc03c,"Jl. Pekunden Dalam No.568, Miroto, Kec. Semarang Tengah, Kota Semarang, Jawa Tengah 50134, Indonesia",50134,-6.984817199999999,110.4148089,384ae7de-8363-417e-85e1-113aafd9bc28,SD Kanisius Pekunden Leadership School,SD,eda90b82-6380-43c9-9263-14595d8ad221,2024/2025,45,141,12,60,9,12,2,12,2.8,71.15
719db523-9a3c-4006-aa50-6dc6cb87c4d7,Admin SD Islam Terpadu Bina Amal,sdislamterpadubinaamal@yopmail.com,d5645ac4-790d-4020-8e53-5819f19c8479,"2C47+8P7, Jl. Kyai Saleh, Mugassari, Kec. Semarang Sel., Kota Semarang, Jawa Tengah 50243, Indonesia",50243,-6.994219299999999,110.4142846,f21249d7-efbc-4d5b-8397-ac3e0582503c,SD Islam Terpadu Bina Amal,SD,91ecb8de-948b-44d2-a34e-04936fca2896,2024/2025,39,82,5,35,12,16,4,14,2.1,75.48
522927b4-5386-4aa3-a113-eedd6a170146,Admin Sekolah Dasar Islam Bilingual Annisa,sekolahdasarislambilingualannisa@yopmail.com,100f92e0-86ab-4b35-ad7f-98d134c9c98e,"Jl. Abimanyu Raya No.17-19, Pindrikan Lor, Kec. Semarang Tengah, Kota Semarang, Jawa Tengah 50131, Indonesia",50131,-6.9774653,110.4100521,693b1763-403b-4cd8-852f-045a8f96e2fb,Sekolah Dasar Islam Bilingual Annisa,SD,fbff91c5-1be0-47e1-a943-a272ef327e5f,2024/2025,53,134,19,33,10,29,2,15,2.3,76.55
f528929d-5f52-4b50-9186-0acc08182778,Admin Elementary School Pekunden,elementaryschoolpekunden@yopmail.com,a658beaa-b6be-4211-bd70-dc910fff8e8e,"Jl. Taman Pekunden No.9, RT.3/RW.3, Pekunden, Kec. Semarang Tengah, Kota Semarang, Jawa Tengah 50134, Indonesia",50134,-6.986550299999999,110.4187377,34f1cfd4-30f3-423c-b97d-326b81393bad,Elementary School Pekunden,SD,4ef2d325-7fa5-4bed-b6b6-84d5397883d0,2024/2025,48,145,14,22,8,30,9,12,1.8,82.35
657a743a-3824-4628-8d14-b64ffc577726,Admin SD Darussalam Semarang,sddarussalamsemarang@yopmail.com,f181973f-c9bb-4baf-be10-0d8b99c9ed3c,"X9XG+F26, Kembangarum, Semarang Barat, Semarang City, Central Java 50183, Indonesia",50183,-7.001342999999999,110.375029,130678ee-7d84-4ff6-8725-7ac266f6ecc6,SD Darussalam Semarang,SD,7ee62456-c131-490d-ac1f-2a0c04e6273d,2024/2025,55,149,8,15,5,22,10,20,2.3,73.16
e323bc23-1414-4b26-b1a5-40ddc0a836f2,Admin SD IT Harapan Bunda Semarang,sditharapanbundasemarang@yopmail.com,e7631af3-d3c9-4406-9526-89ed60282353,"Penggaron Kidul, Pedurungan, Semarang City, Central Java 50194, Indonesia",50194,-7.0123832,110.4887621,f4e7f800-7937-4b34-91b6-96ac13504c21,SD IT Harapan Bunda Semarang,SD,daf403ae-bc31-4666-acc1-e24407d54c84,2024/2025,52,97,16,15,11,20,5,5,2.4,84.03
ef758cbc-f83c-426a-a9a4-1a9518b48672,Admin SD Islam Diponegoro,sdislamdiponegoro@yopmail.com,f486a968-c1f6-41cc-b9b2-8c5556c2ff2f,"Jl. Jatimulyo No.19, Pedalangan, Kec. Banyumanik, Kota Semarang, Jawa Tengah 50268, Indonesia",50268,-7.0545025,110.4319736,d3d371df-8da2-40c6-a357-68fdecbb426f,SD Islam Diponegoro,SD,88a3c403-a583-40d3-877b-6e0376f180c2,2024/2025,33,88,14,28,12,30,2,15,2.0,83.46
7a33bb9e-b3b8-4516-8b7f-1499101d795c,Admin SD Islam Al Azhar 25,sdislamalazhar25@yopmail.com,5711e2e9-8aa3-4fbf-bce9-60879b597a5b,"Jl. Wr. Supratman No.Kav. 31-32, Gisikdrono, Kec. Semarang Barat, Kota Semarang, Jawa Tengah 50145, Indonesia",50145,-6.9857853,110.3852775,fcf46001-db2d-4eb4-92c7-bacea46c4486,SD Islam Al Azhar 25,SD,5181ba0a-20c0-4e46-80ac-df5c95962e09,2024/2025,58,109,8,45,10,25,6,19,2.3,81.09
08bd2583-cd8a-44e3-a6bd-1a0465964be0,Admin Champion Elementary School Semarang,championelementaryschoolsemarang@yopmail.com,880a7a15-ebec-4802-bc11-c84b5f17e191,"Jl. Pucung, RT.02/RW.09, Plamongan Sari, Kec. Pedurungan, Kota Semarang, Jawa Tengah 50198, Indonesia",50198,-7.0246302,110.4838643,98d3ca67-7f60-487c-b8d3-5aae25499074,Champion Elementary School Semarang,SD,088e64e9-15d9-4fdf-843a-904a71c672c8,2024/2025,52,101,17,33,6,26,8,9,2.3,78.34
39aca221-bfcb-4837-8f24-f46da376b8b3,Admin SD Marsudirini,sdmarsudirini@yopmail.com,51e8ed7c-aa69-4124-aeba-119778fecca4,"Jl. Pemuda No.157, Sekayu, Kec. Semarang Tengah, Kota Semarang, Jawa Tengah 50132, Indonesia",50132,-6.981579699999999,110.411623,bbd41646-2770-4c39-8ac5-79aca1d61c14,SD Marsudirini,SD,9f422dfe-a05c-40f0-8187-5a82088cb8ea,2024/2025,55,115,6,50,6,16,5,17,1.7,79.32
dac5ae91-23ef-4a71-9b81-3d4ec67052f6,Admin Islamic Primary School Primadana Semarang,islamicprimaryschoolprimadanasemarang@yopmail.com,0c103349-f9ff-4019-97fa-8a4bd73d333d,"Jl. Singa Utara No.40, Kalicari, Kec. Pedurungan, Kota Semarang, Jawa Tengah 50198, Indonesia",50198,-7.0001571,110.4589113,08244bb5-07b5-4ac6-b729-ca0a65a54977,Islamic Primary School Primadana Semarang,SD,e49d599f-f1b0-4f3c-a8b1-5721ac423051,2024/2025,54,138,12,16,7,19,9,9,2.4,83.07
d8331225-e00e-4310-ad6c-3170e15d7f01,Admin SD Cita Bangsa,sdcitabangsa@yopmail.com,31e5bfdb-5000-47aa-8e5b-b79850d27526,"Jl. Sendangsari Utara XV No.5, Kalicari, Kec. Pedurungan, Kota Semarang, Jawa Tengah 50198, Indonesia",50198,-6.996783,110.4541689,f6cab81e-2757-4044-a7e5-104c77da9b65,SD Cita Bangsa,SD,7fe28842-a284-42ef-8cd7-ea16f7f56fa6,2024/2025,50,88,15,26,7,20,5,13,1.7,81.75
62539bed-d95c-40fa-95e5-505f67d6ab4c,Admin Integrated Islamic Elementary School Al Firdaus,integratedislamicelementaryschoolalfirdaus@yopmail.com,206458a5-1117-4dfe-a26b-4389789b31fd,"Jl. Pleburan Barat No.9, Pleburan, Kec. Semarang Sel., Kota Semarang, Jawa Tengah 50241, Indonesia",50241,-6.9991783,110.4238435,d22b7850-b457-4233-8213-be76ecf4b483,Integrated Islamic Elementary School Al Firdaus,SD,7c9168b1-7f80-4273-a68e-80e49a037d77,2024/2025,47,88,7,21,14,18,5,5,1.7,71.39
bd21c601-c266-4d00-8f35-a167b199fe3b,Admin SD Hj Isriati Baiturrahman 1 Semarang,sdhjisriatibaiturrahman1semarang@yopmail.com,82f99141-debd-49cd-ac02-eff7a2e49dbd,"Jl. Pandanaran No.126, Pekunden, Kec. Semarang Tengah, Kota Semarang, Jawa Tengah 50249, Indonesia",50249,-6.9890072,110.4221567,bb692192-3ac1-466c-9a5c-71d1b5ae12b6,SD Hj Isriati Baiturrahman 1 Semarang,SD,99caccdd-ac07-4e5c-b201-acfad4bd693a,2024/2025,60,102,18,29,14,19,2,17,2.0,70.76
ba6732c9-79af-403a-93a1-aea23fe5735b,Admin Hidayatullah Islamic Primary School,hidayatullahislamicprimaryschool@yopmail.com,fffea220-3a27-4a90-9efc-1f76f4b2a747,"Jl. Durian Selatan I No.6, Srondol Wetan, Kec. Banyumanik, Kota Semarang, Jawa Tengah 50263, Indonesia",50263,-7.0628391,110.4173179,103bb817-b158-469f-8545-d7b2ba452dec,Hidayatullah Islamic Primary School,SD,55f40886-7b8c-4dd5-a9af-3fc72e2c39f9,2024/2025,32,135,18,54,10,21,3,11,2.4,76.14
ac753dc3-bae8-4891-9033-8328d80adb43,Admin Sekolah Dasar Negeri Bulustalan Semarang,sekolahdasarnegeribulustalansemarang@yopmail.com,544414c8-9cb7-4760-bbba-2a3077a6e325,"Jl. Basudewo No.2, Bulustalan, Kec. Semarang Sel., Kota Semarang, Jawa Tengah 50245, Indonesia",50245,-6.9902602,110.4030527,2397a82c-74d4-449f-b99e-27935338835c,Sekolah Dasar Negeri Bulustalan Semarang,SD,a1d42495-1e5c-45fe-834c-752672f6733a,2024/2025,58,149,7,21,11,30,4,9,2.1,82.18
66e280c7-b462-4aa7-b30f-995018e1e346,"Admin 1st State Elementary School, Ngaliyan",1ststateelementaryschoolngaliyan@yopmail.com,80d091b9-4fbc-4b7c-93ba-80c26a6a490f,"283X+F9C, Ngaliyan, Semarang City, Central Java 50181, Indonesia",50181,-6.9963079,110.3483897,eaaa928f-f5c2-4c94-afdc-107cef11101c,"1st State Elementary School, Ngaliyan",SD,8b1b08a6-1657-4610-9cf9-02196df355a0,2024/2025,33,120,8,50,10,15,7,16,2.3,75.59
caa643c6-16da-49c1-8a9e-e6a3bec552ac,Admin SD Negeri Krapyak – Semarang Barat,sdnegerikrapyak–semarangbarat@yopmail.com,c16e9ee7-9be7-4074-b435-6267a7fc223a,"Jl. Warigalit Raya No.244, Krapyak, Kec. Semarang Barat, Kota Semarang, Jawa Tengah 50146, Indonesia",50146,-6.9832234,110.3678608,7264cf7e-d739-456d-ba0c-5b1e463793af,SD Negeri Krapyak – Semarang Barat,SD,b3bb8c22-03f2-4b4d-ae9a-6e99e2f6a75c,2024/2025,37,115,11,37,5,23,2,9,2.1,89.33
33b1f30c-6cb8-490c-892b-b7dc0a1d3e3e,Admin Pangudi Luhur Bernardus Elementary School,pangudiluhurbernarduselementaryschool@yopmail.com,6fd2c0e4-4499-4fb8-9d54-305a0b2822de,"Jl. DR. Sutomo No.4, Randusari, Kec. Semarang Sel., Kota Semarang, Jawa Tengah 50244, Indonesia",50244,-6.986172,110.4104939,3327a789-5866-4c61-ba11-e72a0e607e80,Pangudi Luhur Bernardus Elementary School,SD,2a324b9c-37a0-4e94-bc54-059460cb5425,2024/2025,60,147,6,53,10,11,5,10,1.3,70.85
5aeae15d-0839-4193-b88f-0809bf187b4e,Admin Sekolah Dasar Negeri Pleburan 01 Semarang,sekolahdasarnegeripleburan01semarang@yopmail.com,754dbdde-08e7-424e-a9a5-5dea0eb1d4bc,"Jl. Singosari VII No.7, Pleburan, Kec. Semarang Sel., Kota Semarang, Jawa Tengah 50241, Indonesia",50241,-6.999568399999999,110.4271144,a4af891c-6b6e-4bf2-8d1a-2e51333762c7,Sekolah Dasar Negeri Pleburan 01 Semarang,SD,d76ce6fa-2387-4255-af61-94e6c6288b3c,2024/2025,50,135,16,27,14,25,6,17,2.1,84.89
71c4901e-bf68-4a77-8bbe-56e599e63ed2,Admin SD Muhammadiyah 08,sdmuhammadiyah08@yopmail.com,66ab0613-8865-46c6-bbdc-4aa1c52ac280,"Jl. Zebra Tengah No.74, Pedurungan Kidul, Kec. Pedurungan, Kota Semarang, Jawa Tengah 50192, Indonesia",50192,-7.0170755,110.4785639,09ad1cec-dc40-4618-870f-5ae5bb4a31e0,SD Muhammadiyah 08,SD,60aa4bb0-6636-4e5f-86d4-6fc131b9582e,2024/2025,41,132,15,37,15,29,4,17,2.1,89.02
bfc8f380-3e50-4c92-90a2-660923c7ab68,Admin SMP Negeri 21 Semarang,smpnegeri21semarang@yopmail.com,bf2fdb71-677a-4278-a878-ec34c67b0697,"Jl. Kr. Rejo Raya No.12, Srondol Wetan, Kec. Banyumanik, Kota Semarang, Jawa Tengah 50264, Indonesia",50264,-7.073582099999999,110.4141902,ec2fc590-0dc4-4fbb-8bed-5de7ed96e34b,SMP Negeri 21 Semarang,SMP,2281d9a9-e972-458f-9ef5-171ea095c78e,2024/2025,55,139,16,57,8,20,2,14,2.8,80.28
a5faaddb-50f9-4a4f-bcf0-5755792e5648,Admin Junior High School 39 Semarang,juniorhighschool39semarang@yopmail.com,f8a86559-2e4b-4beb-b84a-f37a78feebaa,"Jl. Sompok Lama No.43 A, Peterongan, Kec. Semarang Sel., Kota Semarang, Jawa Tengah 50242, Indonesia",50242,-7.0037769,110.4365042,b610ee5b-ea71-4988-b37d-85cfb290a37c,Junior High School 39 Semarang,SMP,58a52054-2f89-4f6f-9594-f1b03c4a622c,2024/2025,32,87,20,42,15,30,10,20,2.9,83.65
bba44c06-6c6f-4723-ba83-108ae3b0496b,Admin SMP Negeri 12 Semarang,smpnegeri12semarang@yopmail.com,e6830cb0-7b65-4765-a19b-2119d1dd54ae,"WCP8+GXM, Jl. Ace No.42, Srondol Wetan, Kec. Banyumanik, Kota Semarang, Jawa Tengah 50263, Indonesia",50263,-7.0636372000000005,110.4174441,4c74d1d5-1419-43eb-8aa1-a074a93ca18a,SMP Negeri 12 Semarang,SMP,372f530d-7c0a-4ede-8df1-4f5442e34151,2024/2025,34,85,20,36,8,13,6,7,1.8,70.94
4b50ac95-b452-447b-8ee2-73c1c19a92dc,Admin SMP Institut Indonesia Semarang,smpinstitutindonesiasemarang@yopmail.com,e585b3f9-99be-41fc-9ce9-31d16647c463,"Jl. Taman Maluku No.19, Karangtempel, Kec. Semarang Tim., Kota Semarang, Jawa Tengah 50232, Indonesia",50232,-6.992488,110.4375243,d406dbc6-6191-4c67-8892-8e152800b905,SMP Institut Indonesia Semarang,SMP,8fa17651-0195-4c02-bf77-0f3dd4abcae9,2024/2025,48,133,13,39,6,25,7,7,3.0,71.88
d800224b-51d1-45ff-91de-13a2dc79cf1c,Admin Sekolah Menengah Pertama Negeri 24,sekolahmenengahpertamanegeri24@yopmail.com,562291ed-b901-4389-83aa-31b3dac66a63,"Jl. Pramuka No.1, Sumurrejo, Kec. Gn. Pati, Kota Semarang, Jawa Tengah 50226, Indonesia",50226,-7.1101661,110.3969273,a60a4a67-3968-451e-9c37-35eeb9f6e6da,Sekolah Menengah Pertama Negeri 24,SMP,71decc3b-cb3a-4412-86f7-47c77fd5d4db,2024/2025,53,120,17,44,9,15,10,8,2.5,77.35
e178cd7b-3bef-4704-a63d-891a22345554,Admin SMP Negeri 5 Semarang,smpnegeri5semarang@yopmail.com,c952fb44-9ce7-4751-891c-0eb65d356a2c,"Jl. Sultan Agung No.9, Wonotingal, Kec. Candisari, Kota Semarang, Jawa Tengah 50252, Indonesia",50252,-7.010984199999999,110.4170908,95746411-1a61-4686-ae9e-1ad717f8dce9,SMP Negeri 5 Semarang,SMP,b3527958-1f1b-4bdd-9d95-f61220be24cc,2024/2025,38,149,11,35,9,16,9,19,2.8,85.2
1597dc2f-0a42-4e15-ac21-2a1679071bfb,"Admin Junior High School 31, Semarang",juniorhighschool31semarang@yopmail.com,5ee97cae-2059-42d3-927e-8b5a173d61e1,"Jl. Tambakharjo No.184, Tambakharjo, Kec. Semarang Barat, Kota Semarang, Jawa Tengah 50149, Indonesia",50149,-6.978449,110.3671626,eed76bd7-35f4-4551-8dce-d828ab51ab33,"Junior High School 31, Semarang",SMP,677d3b48-3c6f-4b97-8620-ba3f47a2c246,2024/2025,42,127,10,28,10,23,9,10,1.2,80.96
4682b56b-c99b-4908-b87a-120c79c29da0,Admin SMP Kesatrian 1,smpkesatrian1@yopmail.com,93f66595-1f5b-41fc-b99f-3c58c750472f,"Jl. Soekarno Hatta No.64, Palebon, Kec. Pedurungan, Kota Semarang, Jawa Tengah 50246, Indonesia",50246,-6.998032900000001,110.4635697,58d6dd14-f922-4a4a-90b5-8b8f64be05f2,SMP Kesatrian 1,SMP,0c518e6e-3eca-4fe8-8c7a-5e2b034cd3c1,2024/2025,30,84,12,56,11,19,4,20,2.2,82.17
b6da69c5-65b7-4964-b29e-a7567685a848,Admin Junior High School 7 Semarang,juniorhighschool7semarang@yopmail.com,88a3ffe5-89d2-42a9-b7de-31191d4bf700,"Jl. Imam Bonjol No.191A, Pendrikan Kidul, Kec. Semarang Tengah, Kota Semarang, Jawa Tengah 50131, Indonesia",50131,-6.981323499999999,110.4103077,48879a56-6a69-427f-b280-2da4613e6419,Junior High School 7 Semarang,SMP,3a7687a2-5d0b-4bca-866e-d818b0624153,2024/2025,51,102,15,30,12,17,3,19,2.4,86.04
53c93745-b76d-4582-98a0-34b46318cf83,Admin Junior High School 33 Semarang,juniorhighschool33semarang@yopmail.com,3d5c33df-4c1d-4d94-8001-815268f599d9,"Jl. Kompol R Soekanto No.Kelurahan, Mangunharjo, Kec. Tembalang, Kota Semarang, Jawa Tengah 50272, Indonesia",50272,-7.0460577,110.4636069,f854c194-3597-4d2c-ba4e-8a75877167e7,Junior High School 33 Semarang,SMP,96e77ebf-e063-42ca-9369-8a5b18bf4aeb,2024/2025,43,88,17,55,13,23,3,9,2.0,82.76
a120eeee-a141-465f-9140-ed1ab21683cf,Admin State Junior High School 27 Semarang,statejuniorhighschool27semarang@yopmail.com,3fe9e377-4ec9-4a13-b77a-5f97286b391b,"Jl. Ngesrep Timur VI No.4, Sumurboto, Kec. Banyumanik, Kota Semarang, Jawa Tengah 50269, Indonesia",50269,-7.0512232,110.42259260000002,33a13faa-8109-446f-ae3e-bf5a28bddaa1,State Junior High School 27 Semarang,SMP,b6060a88-7c05-467f-8484-80bb51b24b4c,2024/2025,36,107,14,51,6,15,6,16,1.8,77.96
d10b4e29-44c3-4ece-bc10-cf82733ec562,Admin Junior High School Kesatrian 2 Semarang,juniorhighschoolkesatrian2semarang@yopmail.com,2d107561-6e42-4412-8d45-78c5272e4d78,"Jl. Pamularsih Raya No.96, Gisikdrono, Kec. Semarang Barat, Kota Semarang, Jawa Tengah 50149, Indonesia",50149,-6.9876852,110.3886208,09418ce3-2da3-4abe-ad51-097b0f3384a9,Junior High School Kesatrian 2 Semarang,SMP,e59f7118-eaef-488e-a7aa-99ba39366783,2024/2025,58,95,9,47,15,10,8,15,2.1,78.06
e7bdee0f-5713-4a51-b4a0-2da7d86dcddc,Admin Junior High School 17 Semarang,juniorhighschool17semarang@yopmail.com,1f72da83-1b46-4368-805f-08e08a4b4713,"XCCM+FMG, Jl. Gabeng Raya, Jangli, Kec. Tembalang, Kota Semarang, Jawa Tengah 50255, Indonesia",50255,-7.0288073,110.4342156,506adf4e-0519-4f8b-acf7-a2136e1d6786,Junior High School 17 Semarang,SMP,4e1f5f40-55ab-4cef-8f5e-1b0d605dc583,2024/2025,39,123,16,27,15,25,8,18,1.1,78.68
8abc439f-50af-4896-bdb2-98cd73a23201,Admin Pangudi Luhur Domenico Savio Junior High School,pangudiluhurdomenicosaviojuniorhighschool@yopmail.com,913dfe3e-b73a-403f-8cef-e951b2447957,"Jl. DR. Sutomo No.6, Barusari, Kec. Semarang Sel., Kota Semarang, Jawa Tengah 50245, Indonesia",50245,-6.9864596,110.40970550000002,640eff8f-ec17-4261-9966-f0aa457c0f44,Pangudi Luhur Domenico Savio Junior High School,SMP,7081713b-461c-406b-bcfe-7fc5bc661191,2024/2025,32,143,15,42,11,21,3,8,1.2,84.42
10b7aa97-fe3f-421a-bc72-815417a1a522,Admin Junior High School 35,juniorhighschool35@yopmail.com,9fe5d770-803e-4cd8-a9a8-98b1054072da,"W84F+7QF, Jalan R. Soebagyono, Bubakan, Kec. Mijen, Kota Semarang, Jawa Tengah 50216, Indonesia",50216,-7.0943085,110.3244346,955095fc-53a3-49bf-b900-30bb4f5b88cf,Junior High School 35,SMP,e2b279df-51e4-4640-9960-dea9b9ad0166,2024/2025,45,100,8,23,10,19,5,17,2.1,87.96
949b0519-a23a-42ab-ac71-9ad6751c812e,Admin State Junior High School 11 Semarang,statejuniorhighschool11semarang@yopmail.com,13643292-70cc-4c0b-8b25-93ebd52d2da1,"Jl. Karangrejo Tengah, Karangrejo, Kec. Gajahmungkur, Kota Semarang, Jawa Tengah 50231, Indonesia",50231,-7.0275458,110.4120887,730d7100-135b-49dc-ad19-b11e953ca244,State Junior High School 11 Semarang,SMP,6df903d1-cee1-4def-bca5-eede580b5c7c,2024/2025,59,101,10,43,9,21,4,17,2.4,74.74
a672056d-d1a2-4fe2-b6a2-aada7388a928,Admin H. Isriati Junior High School Semarang,hisriatijuniorhighschoolsemarang@yopmail.com,cef17961-665c-4711-8d89-faf3f7097e94,"Jl. Abdulrahman Saleh No.285, Kalipancur, Kec. Ngaliyan, Kota Semarang, Jawa Tengah 50183, Indonesia",50183,-7.0097821,110.3776615,97b942ba-c091-47c5-bd57-dc65040dcc9c,H. Isriati Junior High School Semarang,SMP,99eca74c-135a-4ef2-a52e-0ed504af2df5,2024/2025,39,135,11,15,8,11,7,18,2.6,74.27
fb899993-90fb-448d-8878-4445d6952a3a,Admin SMP Islam Al Azhar 23 Kalibanteng - Semarang,smpislamalazhar23kalibanteng-semarang@yopmail.com,cb6cbc81-5cdb-467b-8d5d-726868a2a52b,"Jalan Srikuncoro III Nomor No.5, Kalibanteng Kulon, Semarang Barat, Kalibanteng Kulon, Semarang, Kota Semarang, Jawa Tengah 50145, Indonesia",50145,-6.986920700000001,110.3819054,5cae8b42-da1a-4cf1-a3a1-0e569b7df0fd,SMP Islam Al Azhar 23 Kalibanteng - Semarang,SMP,eac6c7ac-fe67-4043-a998-56ff1a663e47,2024/2025,39,122,17,25,11,28,10,17,1.6,79.16
43c90389-7bed-4f1e-a663-d24cfacf1728,Admin SMP Negeri 1 Semarang,smpnegeri1semarang@yopmail.com,ba34a188-817d-4bad-9e4e-508d8ec66e67,"Jl. Ronggolawe Tim., RT.1/RW.8, Gisikdrono, Kec. Semarang Barat, Kota Semarang, Jawa Tengah 50149, Indonesia",50149,-6.9809734,110.3886713,8a07f077-9a2a-417f-8b72-aa8fbd12e226,SMP Negeri 1 Semarang,SMP,24596166-59a8-46aa-8ac5-d362917d153b,2024/2025,56,123,13,17,14,27,5,14,2.8,89.65
a2462351-68c6-4efb-80cf-f44395d723f6,"Admin Junior High School 19, Semarang",juniorhighschool19semarang@yopmail.com,027772c4-369f-4605-894f-4e5fb18cf75a,"Jl. Abdulrahman Saleh, Manyaran, Kec. Semarang Barat, Kota Semarang, Jawa Tengah 50147, Indonesia",50147,-6.999763199999999,110.3802214,bcd648d2-684c-4f6f-b3cd-8d5c9a6ff3da,"Junior High School 19, Semarang",SMP,7165ddd8-17e4-4fca-b823-0afe811111c8,2024/2025,47,130,10,59,8,23,9,11,1.6,84.4
b551b5ff-a780-41cf-b65d-3d9bb33f051e,Admin Junior High School 34 Semarang,juniorhighschool34semarang@yopmail.com,0d94b441-d375-429e-a776-884b8d30ad58,"Jl. Tlogomulyo, Tlogomulyo, Kec. Pedurungan, Kota Semarang, Jawa Tengah 50113, Indonesia",50113,-6.9989501,110.4805511,fb2d5669-7ef4-4c86-9167-8f95ac638db1,Junior High School 34 Semarang,SMP,d1f86e38-efb4-402d-82b6-9e247ef55903,2024/2025,41,126,5,16,9,25,6,16,1.3,86.42
83c4e852-a677-476c-947a-0fa6ab614e87,Admin SMP Negeri 15 Semarang,smpnegeri15semarang@yopmail.com,e168a550-2fdb-482f-af21-51395646610c,"Jl. Supriyadi No.72, Kalicari, Kec. Pedurungan, Kota Semarang, Jawa Tengah 50198, Indonesia",50198,-6.9951027,110.4562293,fe874afa-c9e7-434e-8d3f-71a0c83aa03f,SMP Negeri 15 Semarang,SMP,4f568def-33aa-4d0c-8b87-1c01e0cfbce0,2024/2025,49,135,13,50,9,26,5,7,1.9,75.26
f6f4c726-fa3e-471c-96d5-188c69c752ef,Admin Semarang 6th Public Middle School,semarang6thpublicmiddleschool@yopmail.com,5736622e-1837-474a-b9c4-6f59bafe9df8,"Jl. Patimura No.9, Kebonagung, Kec. Semarang Tim., Kota Semarang, Jawa Tengah 50123, Indonesia",50123,-6.9699143,110.433541,3ca8448a-198e-4569-b508-13259b00a95e,Semarang 6th Public Middle School,SMP,77f8ec4a-36bc-498e-a259-c005552b9346,2024/2025,59,123,10,59,13,14,5,10,3.0,82.3
386ad22b-ef50-494b-866a-88d07e964014,Admin SMP N 13 Semarang,smpn13semarang@yopmail.com,155008a5-fd5b-4bdf-920d-49a6e4cd3d47,"X9QW+53V, Jl. Lamongan Raya, Sampangan, Kec. Gajahmungkur, Kota Semarang, Jawa Tengah 50236, Indonesia",50236,-7.012016200000001,110.3951606,23ca92f1-1698-424b-97e1-96ee4abb36f7,SMP N 13 Semarang,SMP,837077d3-53e5-48fe-beec-6a1b1049dfbb,2024/2025,47,106,7,16,6,13,2,11,2.2,75.47
2e14f7bc-eebc-4ca1-92c4-69db1621c063,"Admin Junior High School 14, Semarang",juniorhighschool14semarang@yopmail.com,757a549d-f384-4178-8616-688da2c66589,"Jl. Panda Raya No.2, Palebon, Kec. Pedurungan, Kota Semarang, Jawa Tengah 50246, Indonesia",50246,-7.005171799999999,110.4630286,98d1a425-633b-463d-af23-1354caf93766,"Junior High School 14, Semarang",SMP,1fa35a7d-7c6f-45f8-89a8-99e293791462,2024/2025,39,137,15,35,7,21,8,19,1.7,81.67
840876ca-f27c-4ec6-a817-141e0353a9c3,Admin SMP Maria Mediatrix,smpmariamediatrix@yopmail.com,9159b562-bcdf-4c32-97c4-97477c804b13,"Jl. MT. Haryono No.908, Peterongan, Kec. Semarang Sel., Kota Semarang, Jawa Tengah 50242, Indonesia",50242,-6.9994396,110.4326757,ea20fe3b-05d5-4f06-bb26-d5c22ed06ec0,SMP Maria Mediatrix,SMP,61e602aa-857b-4f92-9265-fe97b9a1fd82,2024/2025,44,87,12,35,6,30,9,18,2.5,70.44
c7cc75b3-6058-4aed-a9bb-944c6d594743,Admin Muhammadiyah Junior High School 4,muhammadiyahjuniorhighschool4@yopmail.com,21c78961-f399-4cad-b754-cc8db463c810,"Jl. Puspowarno IV No.20, Salamanmloyo, Kec. Semarang Barat, Kota Semarang, Jawa Tengah 50149, Indonesia",50149,-6.984759599999999,110.3953108,9c598c43-0329-4a79-90c7-e3f34d053c31,Muhammadiyah Junior High School 4,SMP,69de0769-269b-4281-9c1e-b7a14b78f8a9,2024/2025,56,141,6,24,13,30,9,13,1.3,75.12
1944122c-55cb-4ce2-840f-014945b6b97f,Admin SMP Theresiana 1 Semarang,smptheresiana1semarang@yopmail.com,d440de74-c037-47bf-b7c7-aac4cb612269,"Jl. Mayjend Sutoyo No.69, Pekunden, Kec. Semarang Tengah, Kota Semarang, Jawa Tengah 50134, Indonesia",50134,-6.9861765,110.4280878,6aea048d-6022-4db9-a756-2da2c999f382,SMP Theresiana 1 Semarang,SMP,5b823ebe-db7e-4a0d-a2af-f455bf494add,2024/2025,43,116,14,32,6,27,4,8,2.7,89.85
e804843b-7bb6-4b42-9a2f-57c9618c3cfe,Admin SMP-SMA Semesta Bilingual Boarding School,smp-smasemestabilingualboardingschool@yopmail.com,f2f7f88f-a58b-4f16-a06a-ee8a5d5dd841,"Jl. Raya Manyaran-Gunungpati No.KM. 15, Nongkosawit, Kec. Gn. Pati, Kota Semarang, Jawa Tengah 50224, Indonesia",50224,-7.0597314,110.3616909,46572cb4-9cc8-4246-aed5-ef142f5a6bce,SMP-SMA Semesta Bilingual Boarding School,SMP,60186424-676e-45f4-9ca8-25cc097bf94a,2024/2025,43,102,18,17,7,25,6,10,2.3,74.83
53d38c85-9100-43c6-8ce1-641e33e0dd1b,Admin SMP Kanisius St Yoris,smpkanisiusstyoris@yopmail.com,9506e6da-c36a-420e-8684-c6df607628f9,"Jl. Siwalan No.9, Wonodri, Kec. Semarang Sel., Kota Semarang, Jawa Tengah 50242, Indonesia",50242,-6.996124399999999,110.4306033,7c812ed7-44f4-417f-8760-53a4a720f1e6,SMP Kanisius St Yoris,SMP,5dd84857-8427-4028-b204-a36763b65f0d,2024/2025,45,135,8,45,9,18,2,19,1.7,78.14
5f1783de-a67a-4de2-8124-831a8905305b,Admin SMP Islam Terpadu PAPB,smpislamterpadupapb@yopmail.com,94a59191-1e5c-4b90-85cd-a5ffd6b91871,"Jl. Panda Bar. No.44, Palebon, Kec. Pedurungan, Kota Semarang, Jawa Tengah 50199, Indonesia",50199,-7.0023461,110.4619223,f2bb20d1-5260-4d9e-b7a6-265ac0bf17ee,SMP Islam Terpadu PAPB,SMP,e4af759d-bafa-4d67-a6f5-e9ff331ee682,2024/2025,49,84,10,37,11,25,10,18,1.7,89.01
a0363ccd-449e-4b12-9224-574374c030da,Admin 9 Junior High School of Semarang,9juniorhighschoolofsemarang@yopmail.com,e12dd360-f3fc-478f-904a-ae85c65f2149,"Jl. Sendang Utara No.2, Gemah, Kec. Pedurungan, Kota Semarang, Jawa Tengah 50246, Indonesia",50246,-7.009230499999999,110.459676,087e723e-f55f-4f0c-9ab5-25d93ebaaa97,9 Junior High School of Semarang,SMP,e4af35fa-a572-477f-9630-b2220abb9199,2024/2025,39,136,8,37,11,20,10,17,1.0,70.3
fde7a1d4-9087-4e5a-b39f-874051519d7d,"Admin Junior High School 29, Semarang",juniorhighschool29semarang@yopmail.com,c7924aa1-333d-4455-9a26-3c8aee3c8213,"Jalan, Jl. Kedungmundu, Kedungmundu, Kec. Tembalang, Kota Semarang, Jawa Tengah 50272, Indonesia",50272,-7.0228183,110.4645058,9c3fe446-d6c3-430c-b95f-b33ba42cfda2,"Junior High School 29, Semarang",SMP,4814dc0e-99e9-4556-8949-3c90d7e3de96,2024/2025,37,91,12,30,11,11,7,5,1.1,87.96
cc703afb-3877-41f4-bc46-d1a701ec61f8,Admin SMP Islam Terpadu Harapan Bunda Semarang,smpislamterpaduharapanbundasemarang@yopmail.com,220f311d-f469-409d-a685-4da745af885a,"JL. Kh.Tohir Gg. Sunan Kalijaga X, pedurungan, Penggaron Kidul, kota semarang, Kota Semarang, Jawa Tengah 50194, Indonesia",50194,-7.0117299,110.4890943,5136ec88-ae00-4268-bf5a-9caf787a04b2,SMP Islam Terpadu Harapan Bunda Semarang,SMP,e196620b-2d5d-48e8-99ad-95eb9e392b63,2024/2025,52,149,17,30,6,10,5,10,2.0,78.1
672fc02f-7d75-4d7a-9247-4a08ffbf844a,Admin Junior High School 37,juniorhighschool37@yopmail.com,fa7e9121-ff2d-4fc0-a257-7e7403407e2d,"Jl. Sompok Lama No.43, Peterongan, Kec. Semarang Sel., Kota Semarang, Jawa Tengah 50242, Indonesia",50242,-7.0025527,110.4362475,75a8b51f-0507-4277-af47-0e5e7036c8e3,Junior High School 37,SMP,1c7b1203-b80b-498a-8512-e58d2a736130,2024/2025,35,82,5,18,11,21,7,20,2.3,71.41
c84654c5-0b79-4f7e-bd9a-15a3e89035da,"Admin Junior High School 22, Semarang",juniorhighschool22semarang@yopmail.com,2d00638f-9f23-44aa-87a2-6e9c87c0f5a5,"W9G6+J37, Jl. Raya Manyaran-Gunungpati, RT.001/RW.001, Nongkosawit, Kec. Gn. Pati, Kota Semarang, Jawa Tengah 50225, Indonesia",50225,-7.073460400000001,110.3601576,9ea2072b-5910-497b-859f-e0ae7f8b0cdf,"Junior High School 22, Semarang",SMP,10fd82b3-6979-4785-9c4b-ba8ecdfb4929,2024/2025,54,109,10,53,12,14,9,16,2.7,74.89
bf76d0a0-994d-48bd-9337-652b8c683579,Admin SMP Negeri 2 Semarang,smpnegeri2semarang@yopmail.com,13d7d66c-6559-49a1-9878-7e65ff0b2cd1,"Jl. Brigjend Katamso No.14, Karangtempel, Kec. Semarang Tim., Kota Semarang, Jawa Tengah 50242, Indonesia",50242,-6.994752699999999,110.4342873,de8754d3-ae4d-497e-b91c-b00bedfcb539,SMP Negeri 2 Semarang,SMP,694166eb-16cb-482b-8774-ec7d1e204de4,2024/2025,30,108,15,26,8,14,10,11,1.8,79.15
bed1fd44-f048-4c58-b986-44beb009f143,Admin Sekolah Menengah Pertama Negeri 16 Kota Semarang,sekolahmenengahpertamanegeri16kotasemarang@yopmail.com,c8385942-674d-43e6-8fd1-943764da9bb5,"X8WR+R35, Jl. Prof. Dr. Hamka, Ngaliyan, Kec. Ngaliyan, Kota Semarang, Jawa Tengah 50181, Indonesia",50181,-7.002995299999999,110.3402392,84175f32-a7b9-4782-946a-b1f03f8ea3ed,Sekolah Menengah Pertama Negeri 16 Kota Semarang,SMP,db936abd-cce5-4b70-b33b-627f1eb8758e,2024/2025,31,130,6,26,9,26,5,18,1.6,78.76
82d8efbf-d45a-4f69-833a-7c5294dccf26,Admin Junior High School 26,juniorhighschool26@yopmail.com,2678c98a-0df0-4f8e-874d-ca330e7bad14,"WC78+MHF, Jl. Mpu Sendok II, Pudakpayung, Kec. Banyumanik, Kota Semarang, Jawa Tengah 50265, Indonesia",50265,-7.085813600000001,110.4164198,1aa07465-860b-42b0-8057-8de8c33b0280,Junior High School 26,SMP,cc003d70-64d8-492d-be7a-afc7b896e669,2024/2025,41,133,9,28,5,11,6,10,1.7,75.68
c05b323b-2868-4d32-85f5-d9b1df29fb1b,Admin SMP Negeri 43 Semarang,smpnegeri43semarang@yopmail.com,0761199a-2830-4f75-a6bb-8356d754a16f,"2FFG+M2P, Jl. Jempono, Bangetayu Kulon, Kec. Genuk, Kota Semarang, Jawa Tengah 50115, Indonesia",50115,-6.9757868,110.4750735,69eb6b55-17fc-48d1-9dd2-3fc67d45133b,SMP Negeri 43 Semarang,SMP,78a553d4-a4cd-4e5b-a3e6-47b6e0e2f2a8,2024/2025,52,111,9,27,11,20,7,12,2.0,72.7
5a80a6d5-22b5-4039-aa82-3cd0ce53f0e9,Admin St. Michael's High School,stmichael'shighschool@yopmail.com,5e61cef3-615f-4071-9ff9-39c2f13d96e2,"Jl. Teuku Umar No.16 B, Jatingaleh, Kec. Candisari, Kota Semarang, Jawa Tengah 50254, Indonesia",50254,-7.0260287,110.4200093,f5e84279-c747-448d-9965-1a0b78f50e95,St. Michael's High School,SMA,37c425f2-d0d6-4dc6-998f-b605a2c88d6d,2024/2025,39,148,14,41,6,19,8,5,1.3,71.25
7d453b80-5461-4773-86ca-097e871a56af,Admin SMA Islam Sultan Agung 3,smaislamsultanagung3@yopmail.com,a9023288-b661-4317-9d03-b5971389d4fb,"JL. Raya Kaligawe, Km. 4, Muktiharjo, Genuk, Terboyo Kulon, Kec. Genuk, Kota Semarang, Jawa Tengah 50111, Indonesia",50111,-6.955851699999999,110.4563626,699511e0-486d-4429-91dc-3300ea6b8e43,SMA Islam Sultan Agung 3,SMA,d0509fcb-8ed6-434d-804b-e6e32b0ad585,2024/2025,31,118,20,39,13,11,8,20,1.6,70.86
4d6f1bde-b2a7-42cb-b02a-75b90062ed20,Admin SMA AT THOHIRIYYAH Semarang,smaatthohiriyyahsemarang@yopmail.com,85e3d51f-b711-4b0a-8c56-3bc8da70518a,"Jl. KH. Thohir No.36, Pedurungan Lor, Kec. Pedurungan, Kota Semarang, Jawa Tengah 50192, Indonesia",50192,-7.014708,110.4858275,f78fdb18-e58a-4dc3-917b-ee183723d8a4,SMA AT THOHIRIYYAH Semarang,SMA,8de22a80-698b-4285-ba46-bb7594ca7e5e,2024/2025,45,88,19,52,5,17,7,10,2.9,87.3
c355553b-0051-4a1f-b89c-19a7c3107f1f,Admin SMA Unggulan Nurul Islami,smaunggulannurulislami@yopmail.com,c8359e41-1c3c-4158-968f-4f9e1eeb5f99,"W8V2+6GH, Wonolopo, Mijen, Semarang City, Central Java 50215, Indonesia",50215,-7.056937700000001,110.3013619,975ad873-2bd3-43ae-867b-c2314b17aabd,SMA Unggulan Nurul Islami,SMA,52b04fa3-6b45-4f29-bbdb-07a50bf0a44c,2024/2025,49,94,14,21,14,27,8,14,1.9,79.42
ddc748c4-3e94-4abd-9502-3af99dd096ed,Admin SMA Multazam IBS Semarang,smamultazamibssemarang@yopmail.com,e60696e8-a4d0-4c17-8878-f6a3e5c6d6ef,"WC38+PCG, Jl. Griya Payung Indah No.3A, Pudakpayung, Kec. Banyumanik, Kota Semarang, Jawa Tengah 50265, Indonesia",50265,-7.095732399999999,110.4161152,a0ab71bc-a0f4-418a-9d6b-5a5c25a5142f,SMA Multazam IBS Semarang,SMA,59cfdaef-f7fe-4025-8b73-a26d8164eba9,2024/2025,35,121,11,23,7,17,7,14,3.0,77.21
88cdd505-b0fc-4d18-b906-a246d9de6f2c,Admin SMK Walisongo Semarang,smkwalisongosemarang@yopmail.com,2ea02475-8342-4e5d-bcde-0a576d09f647,"Jl. Ki Mangunsarkoro No.17, Karangkidul, Brumbungan, Kec. Semarang Tengah, Kota Semarang, Jawa Tengah 50136, Indonesia",50136,-6.990300599999999,110.4294563,7c152b18-807f-4bf6-ad50-02b09d4bb150,SMK Walisongo Semarang,SMA,ac385af6-4cca-48bd-a3ae-762fe0f491b8,2024/2025,33,114,5,39,15,23,2,9,2.0,79.72
84ffbd9a-4293-4f7d-b69f-c0cd4587ff5c,Admin SMA Negeri 1 Bergas,smanegeri1bergas@yopmail.com,53648c83-4ae0-43c1-80ff-a7f90120bdb8,"Jl. Soekarno Hatta, Krajan, Bergas Kidul, Kec. Bergas, Kabupaten Semarang, Jawa Tengah 50552, Indonesia",50552,-7.190845899999999,110.4252138,485abeee-f69d-43fc-b3f9-768e79505392,SMA Negeri 1 Bergas,SMA,accd5365-17d9-43c1-8cf5-e80aa5f80adf,2024/2025,36,100,18,33,14,10,5,18,1.7,79.89
d8fd9bc8-7c65-47a1-b600-4370a0208e02,Admin SMK Shipping (SPM) Semarang,smkshipping(spm)semarang@yopmail.com,fdf2f5f7-d438-4222-addc-381ddbe99778,"Jl. Kendeng I No.3, Bendan Ngisor, Kec. Gajahmungkur, Kota Semarang, Jawa Tengah 50232, Indonesia",50232,-7.0147102,110.3947858,0654b63f-0476-4626-a1e0-853aef2613e7,SMK Shipping (SPM) Semarang,SMA,e8188e01-6058-48c4-a51f-26e67d77eb5c,2024/2025,41,97,12,20,11,21,10,5,1.5,88.62
70f60fbf-2607-4295-bd3b-12ea15ac1312,Admin Krista Mitra Christian School,kristamitrachristianschool@yopmail.com,cafb43f3-6a02-4f62-88fe-aa26f977ed8d,"29PQ+PCM, Jl. Puri Anjasmoro No.1 Blok FF, Tawangsari, Kec. Semarang Barat, Kota Semarang, Jawa Tengah 50144, Indonesia",50144,-6.9630676,110.3885392,fd4a806d-d75a-4b1d-b5be-081642ce8660,Krista Mitra Christian School,SMA,bbd8513c-dcd9-4b11-910f-243c0bd15087,2024/2025,49,119,5,35,13,27,4,16,1.2,72.33
88ea942d-4f60-4e1d-a727-fcdb85ae6343,Admin SMA Widya Mandala,smawidyamandala@yopmail.com,fdcf185a-a726-47d5-8ba1-b997f880283b,"Jl. Menoreh Tengah X No.9, Sampangan, Kec. Gajahmungkur, Kota Semarang, Jawa Tengah 50232, Indonesia",50232,-7.0128425,110.3894045,f8767eff-18a4-4c24-a6b6-519f07d8cc6b,SMA Widya Mandala,SMA,1304e7f3-6f68-4915-992e-083ff893df61,2024/2025,60,105,20,23,10,15,5,8,1.2,88.38
c47cd68c-41e9-4d46-a6db-25cc2a966f08,Admin SMA Dian Kartika,smadiankartika@yopmail.com,45f66dfe-76c0-4ca9-9254-95c5df383f4d,"Jalan Muradi no. 85, Kelurahan Kembangarum, Kecamatan Semarang barat, Jalan Muradi Raya No.25, Kembangarum, Kec. Semarang Barat, Kota Semarang, Jawa Tengah 50148, Indonesia",50148,-6.9919936,110.3770493,5eb80b0b-be0e-4fe2-9a32-7967677ec4ed,SMA Dian Kartika,SMA,018302fb-f804-428f-9724-451f6c71c757,2024/2025,30,98,10,29,12,24,3,9,1.4,76.67
005b059d-fb23-43ab-929b-ea432837fcca,Admin SMA Muhammadiyah 2 Semarang,smamuhammadiyah2semarang@yopmail.com,53e8bf1d-00c1-4184-b89f-e1242d8459d1,"Jalan Rm. Hadi Soebeno Raya s, Mijen, Kec. Mijen, Kota Semarang, Jawa Tengah 50275, Indonesia",50275,-7.0648813,110.3107025,86b972f4-69e5-4dcc-bb89-8345abc9b9ad,SMA Muhammadiyah 2 Semarang,SMA,f22972ad-e310-4352-b38a-2a413da2c16c,2024/2025,33,134,7,18,5,11,2,17,1.5,87.02
3fa57c18-8aca-4bb6-bc30-ca3920e83ae4,Admin SMK Negeri 7 Semarang (STM Pembangunan),smknegeri7semarang(stmpembangunan)@yopmail.com,ea980492-fbbd-4777-b0fe-0dcfce989023,"Jl. Simpang Lima No.1, RT.02/RW.01, Mugassari, Kec. Semarang Sel., Kota Semarang, Jawa Tengah 50249, Indonesia",50249,-6.9913367,110.4216002,e5621d77-edd1-40d6-95b7-e83a9c947ebc,SMK Negeri 7 Semarang (STM Pembangunan),SMA,f2759005-130b-4fa5-bb1b-0e6481188212,2024/2025,52,107,20,39,11,21,4,7,2.8,78.89
5806f6ad-fd54-4923-81ad-ae960ef8b995,Admin SMK 17 Agustus 1945 Semarang,smk17agustus1945semarang@yopmail.com,09285a66-2e90-419c-9c6e-0483a52837fa,"Jl. Ki Mangunsarkoro No.19, Karangkidul, Kec. Semarang Tengah, Kota Semarang, Jawa Tengah 50231, Indonesia",50231,-6.990653699999999,110.4292355,5144f614-03fb-4368-970d-69a92c849016,SMK 17 Agustus 1945 Semarang,SMA,3378c237-9beb-4e11-9f79-3a4d630ad4a4,2024/2025,46,139,16,25,9,30,7,15,2.2,79.91
00ad88a0-1c10-4d94-8c24-d52e33a39337,Admin SMA WIDYA WIYATA,smawidyawiyata@yopmail.com,3706d46c-d9a5-4338-9e89-8b00b1e8c583,"Jl. Gedong Songo II, Manyaran, Kec. Semarang Barat, Kota Semarang, Jawa Tengah 50147, Indonesia",50147,-7.0063637,110.425525,3163bf86-5763-45c2-858f-cc3f082ea433,SMA WIDYA WIYATA,SMA,21d32dc6-1353-46d6-bfc0-5bc22060b3e4,2024/2025,55,113,11,58,12,24,2,5,2.2,76.32
d3b6673d-49e4-41ea-b63e-10b3ea4075a7,Admin SMA Masehi 2 PSAK,smamasehi2psak@yopmail.com,8d31aa24-adba-449d-b536-378ac2978ec2,"Jl. Gemah Raya No.8, Gemah, Kec. Pedurungan, Kota Semarang, Jawa Tengah 50246, Indonesia",50246,-7.0117799,110.467284,35c09d8f-83e2-4d02-89b1-88fead3f688b,SMA Masehi 2 PSAK,SMA,9670c333-2ac4-4804-b6ed-aa6bd625e376,2024/2025,40,96,6,51,6,16,2,7,1.9,74.16
0eaf5882-9ce8-42f5-8485-781c80923037,Admin Permata Bangsa School,permatabangsaschool@yopmail.com,e729f07e-e728-4141-a9a4-ba5430756478,"Jl. Setia Budi No.209a, Srondol Wetan, Kec. Banyumanik, Kota Semarang, Jawa Tengah 50263, Indonesia",50263,-7.0590571,110.4142305,102f452c-3b4d-456b-ae68-6c9597394d59,Permata Bangsa School,SMA,85486926-47b6-47d1-bc88-016f3f431419,2024/2025,54,106,9,30,6,17,2,7,1.1,84.77
9601d50f-ec8f-4a59-a414-0fb3785557ad,Admin SMK Theresiana Semarang,smktheresianasemarang@yopmail.com,bc5d2f17-6028-4e4f-a8a0-744ac903f332,"Jl. Gajahmada No.91, Miroto, Kec. Semarang Tengah, Kota Semarang, Jawa Tengah 50134, Indonesia",50134,-6.981128999999999,110.421327,9d27cead-3323-49b0-93b2-6d4bfe2a4d61,SMK Theresiana Semarang,SMA,cb3824a2-6e85-4a95-bb7b-b2a4b28f5556,2024/2025,48,97,6,33,12,19,3,17,2.6,80.87
6dbf5ec8-396b-411f-ac32-69d660c23587,Admin SMA AL FATTAH TERBOYO,smaalfattahterboyo@yopmail.com,ee89c438-3df9-4e1a-9cb8-dfa2c4d29859,"Jl. Masjid Terboyo No.111, Tambakrejo, Kec. Gayamsari, Kota Semarang, Jawa Tengah 50165, Indonesia",50165,-6.9576083,110.4443475,c6f94353-8027-4a95-a477-89085d7faf96,SMA AL FATTAH TERBOYO,SMA,26d4bf12-78d9-4043-89ed-d616e8fcb271,2024/2025,45,107,8,39,6,27,6,10,1.4,71.82
a496997c-9430-4e0f-af72-9658a985e0c3,"Admin Saint Ignatius Vocational High School, Semarang",saintignatiusvocationalhighschoolsemarang@yopmail.com,1582ffd8-b874-48eb-91f3-518e91051865,"Jl. Tegalsari Tim. VIII No.26, Candi, Kec. Candisari, Kota Semarang, Jawa Tengah 50251, Indonesia",50251,-7.009951999999999,110.427573,69d8cdde-8e09-4017-980c-8532c006cbeb,"Saint Ignatius Vocational High School, Semarang",SMA,fdfe7a50-d00e-4b91-8342-df2c5399bfe6,2024/2025,56,146,11,57,11,12,2,9,2.8,86.58
e70c2f4d-b3c6-4828-b4f3-3499f67594a8,Admin SMA Negeri 13 Semarang,smanegeri13semarang@yopmail.com,3463d549-1f83-47c6-8e80-e41fc2add524,"Jalan Rowo, Semanding, Wonolopo, Kec. Mijen, Kota Semarang, Jawa Tengah 50215, Indonesia",50215,-7.0504472,110.3116621,c0e01f08-4530-4cb7-83ca-c34873e78c48,SMA Negeri 13 Semarang,SMA,65a41dcb-43ec-4108-a70f-a7d478029975,2024/2025,51,114,13,48,10,28,10,8,2.8,79.52
61c1fa6f-b854-43bb-9530-9661ea09709d,Admin 2 State Senior High School of Semarang,2stateseniorhighschoolofsemarang@yopmail.com,663b5852-4bbe-4115-baaf-1c56897b3f80,"Jl. Sendangguwo Baru I No.1, Gemah, Kec. Pedurungan, Kota Semarang, Jawa Tengah 50191, Indonesia",50191,-7.0092677,110.4606954,2df53a22-e76b-4e57-aa96-d7648acbe1d2,2 State Senior High School of Semarang,SMA,87e2ef81-3d0e-4a1c-b04a-5079ed74fb79,2024/2025,30,109,19,16,15,19,5,19,1.9,71.29
f9701960-255a-4a0d-8859-fab34a53e9fa,Admin SMA SEDES SAPIENTIAE,smasedessapientiae@yopmail.com,cf836b6e-76dd-4bb5-b791-58f5d9294e93,"2C2M+829, Peterongan, Semarang Selatan, Semarang City, Central Java 50242, Indonesia",50242,-6.999200999999999,110.4325989,976a2225-dfcf-46a8-b8c5-7078148976d8,SMA SEDES SAPIENTIAE,SMA,15f18dfc-26f9-4933-a999-d452251e07aa,2024/2025,41,119,20,21,6,24,6,11,2.9,75.8
cb382e0b-5e2b-423c-bf4a-88e5f86887d2,Admin Sint Louis Senior High School,sintlouisseniorhighschool@yopmail.com,5e29b50a-b4f9-4304-82be-b36865e4e5a8,"Jl. Dr. Wahidin No.110, Jatingaleh, Kec. Candisari, Kota Semarang, Jawa Tengah 50253, Indonesia",50253,-7.0216107,110.4230948,ed47fc08-b26b-4d16-a929-ce3048eacfee,Sint Louis Senior High School,SMA,46ef431a-dab1-4d34-a484-134245a21c90,2024/2025,38,138,16,37,10,11,7,15,2.6,75.61
0d44d043-53e0-4719-b8f4-d1167647ea43,Admin SMA Nusaputera,smanusaputera@yopmail.com,c92d7571-9a41-4a68-916d-4404cdd9e6f7,"Jl. Karang Anyar No.574, Gabahan, Kec. Semarang Tengah, Kota Semarang, Jawa Tengah 50255, Indonesia",50255,-6.9806737,110.4284327,98f03c41-edae-4403-8c4b-7ecb30a5b88b,SMA Nusaputera,SMA,3d197a78-ec4e-4825-b63f-631d3854bd36,2024/2025,60,105,7,32,11,24,2,15,2.2,83.32
d31c6d7f-b65e-409a-b9ad-445510ad77ae,Admin SMA Theresiana 1 Semarang,smatheresiana1semarang@yopmail.com,c9af8e9b-1bb6-4e23-81ff-1a532c0b9ed7,"Jl. Mayjend Sutoyo No.69, Pekunden, Kec. Semarang Tengah, Kota Semarang, Jawa Tengah 50134, Indonesia",50134,-6.9864199,110.4276805,3a01bae5-d3dd-434e-b143-ac2b17f5ea76,SMA Theresiana 1 Semarang,SMA,00a70f1e-902f-4dd1-90cd-5f8291fc2db9,2024/2025,37,83,18,47,11,22,5,16,1.2,84.95
ea4754a4-7b84-4978-b6e1-f30258cd3af7,Admin High School 16,highschool16@yopmail.com,3f65627b-11e2-47b0-98b5-7202345db142,"X8F6+W8H, Jl. Raya Ngadirgo, Ngadirgo, Kec. Mijen, Kota Semarang, Jawa Tengah 50213, Indonesia",50213,-7.024579699999999,110.3086042,dcf762f0-7030-469c-acb1-ad70079afb46,High School 16,SMA,ea4c22b7-8feb-46bf-9b5e-4f800e9c7c24,2024/2025,38,83,13,40,8,20,3,19,2.4,84.33
cc8bb808-0416-40bb-9ef7-4fd859de2a64,Admin Ronggolawe Highschool,ronggolawehighschool@yopmail.com,8c1fa9e1-3ab5-4c4d-a3b9-27b52c4b4d70,"Jl. Damarwulan II No.103, Karangayu, Kec. Semarang Barat, Kota Semarang, Jawa Tengah 50142, Indonesia",50142,-6.9781673,110.3913069,2d4790ce-96ae-464d-ba14-02ebf9627491,Ronggolawe Highschool,SMA,fd307632-346a-4fca-8f77-777a892e4681,2024/2025,55,82,14,27,12,20,10,10,1.3,83.73
44d4762e-3f32-4c19-8ee6-7c9ddd6ddbfb,Admin SMA Institut Indonesia,smainstitutindonesia@yopmail.com,dc9cb8e5-ba9e-44fd-ad91-449557cab354,"Jl. Maluku No.25, Karangtempel, Kec. Semarang Tim., Kota Semarang, Jawa Tengah 50232, Indonesia",50232,-6.9922602000000005,110.4365719,13a83406-a65e-4c7e-8bb7-e7fc00f878cc,SMA Institut Indonesia,SMA,94fbf1db-8289-4ceb-aceb-415e9400e33c,2024/2025,47,114,20,30,10,17,9,12,1.4,74.66
b1fb0530-6d1c-4830-abc4-9d077f10bd29,Admin SMA Negeri 8 Semarang,smanegeri8semarang@yopmail.com,f851ec4e-3a7b-475d-9ca5-98e9c9041e5e,"Jalan Raya Tugu, Tambakaji, Kec. Ngaliyan, Kota Semarang, Jawa Tengah 50185, Indonesia",50185,-6.9787021,110.3308349,b130ca9d-2f72-4bb2-b0c0-220f959c5e69,SMA Negeri 8 Semarang,SMA,52139367-68c2-48b2-bd92-bc8964f60adb,2024/2025,34,101,19,50,15,11,9,18,2.6,77.18
605e1e6f-50f4-46a1-9921-3665de2319fd,Admin SMA Masehi 1 PSAK,smamasehi1psak@yopmail.com,d2513c9e-5ca9-4312-b47b-c39a38a5965a,"Jl. Pasirmas Raya No.1, Panggung Lor, Kec. Semarang Utara, Kota Semarang, Jawa Tengah 50178, Indonesia",50178,-6.9642468,110.4057962,e389c2f2-4214-4a50-981a-e64aca476957,SMA Masehi 1 PSAK,SMA,b80eb154-5785-4a8b-a6a3-c4f8a950c4bf,2024/2025,52,86,17,26,10,12,2,18,1.4,70.71
920036e9-37a1-4637-940c-3273006ce07d,Admin High School Kesatrian 2,highschoolkesatrian2@yopmail.com,1b2ade55-a913-4c7f-9ccc-5a5fdd83fc5b,"Jl. Gajah Raya No.58, Siwalan, Kec. Gayamsari, Kota Semarang, Jawa Tengah 50162, Indonesia",50162,-6.9824866,110.4488574,f59a165b-6510-48d3-aef3-61713d52f7e6,High School Kesatrian 2,SMA,5dd97a29-812f-42c5-b339-a35c027d038c,2024/2025,51,83,9,25,12,16,7,11,1.2,89.78
62b91356-a71d-4aac-a984-41d6f7fbdc62,Admin SMA Islam Al Azhar 14,smaislamalazhar14@yopmail.com,f4a1e35d-8bfa-4e37-aa4f-2717c143de92,"Jl. Klentengsari No.01, Pedalangan, Kec. Banyumanik, Kota Semarang, Jawa Tengah 50268, Indonesia",50268,-7.0563734,110.4269621,0540601d-c6ca-4b3e-9cbf-cb23fc00a420,SMA Islam Al Azhar 14,SMA,e5b0fad4-8784-4213-8a0e-dc55e5461705,2024/2025,38,131,5,48,15,19,10,7,1.2,72.92
34d035c1-06e3-4aee-8db2-fa7117aa9770,Admin Pangudi Luhur High School Don Bosko,pangudiluhurhighschooldonbosko@yopmail.com,e09c51ce-c2bc-4a9d-97be-ff376d78f3b0,"Jl. Sultan Agung No.133, Karangrejo, Kec. Gajahmungkur, Kota Semarang, Jawa Tengah 50234, Indonesia",50234,-7.0217275,110.4198406,2a267bc7-0d5e-45b7-a2a5-63c10bf2d808,Pangudi Luhur High School Don Bosko,SMA,39e6a7c2-35c0-4a2f-b1eb-b14bebb9088a,2024/2025,40,125,14,59,7,18,10,9,1.8,70.27
28aba9f4-b708-40ea-b218-e061b9aef420,Admin SMA Nasima International School,smanasimainternationalschool@yopmail.com,c614fe2e-314d-403e-9aed-f146884c9cd7,"Jl. Yos Sudarso No.17, RT.1/RW.1, Tawangsari, Kec. Semarang Barat, Kota Semarang, Jawa Tengah 50144, Indonesia",50144,-6.967314699999999,110.3927652,0ab3e072-855a-4528-9dd5-71c32608fb7f,SMA Nasima International School,SMA,15d6f572-83ac-4f8e-bbe6-7cebebc07b37,2024/2025,34,119,6,17,9,10,5,8,1.1,87.79
3c19de49-d159-48a5-a870-f923d98c275e,Admin SMP - SMA Islam Hidayatullah,smp-smaislamhidayatullah@yopmail.com,2eee9eb0-1695-4da5-baa1-8f8de028a472,"Jl. Cemara Raya No.290, Padangsari, Kec. Banyumanik, Kota Semarang, Jawa Tengah 50267, Indonesia",50267,-7.0727755,110.4226165,c294b129-9074-4db8-b139-357272f1dc8c,SMP - SMA Islam Hidayatullah,SMA,1d0b8887-6da4-4658-8d42-e949b1d6df92,2024/2025,52,95,9,25,7,13,10,9,1.8,77.64
7012af86-c3b2-4671-b829-b6e17900c982,Admin SMK Mataram,smkmataram@yopmail.com,732e4918-c48d-4ae4-a2e0-e0a5d17171c1,"Jl. MT. Haryono No.403-405, Jagalan, Kec. Semarang Tengah, Kota Semarang, Jawa Tengah 50136, Indonesia",50136,-6.9821844,110.4309243,e31f7373-b645-4e7d-9a3e-b488bcaa411f,SMK Mataram,SMA,e5e57a67-f30e-4255-a672-4d21adb74815,2024/2025,34,102,13,39,7,30,4,9,2.6,84.46
b8f3b241-be3a-478f-81c3-6c3c67278111,Admin SMA Islam Al Azhar 15 Semarang,smaislamalazhar15semarang@yopmail.com,6720250b-23a2-4ff4-88bd-e53eee555ce4,"Jl. Sri Kuncoro III No.5, Kalibanteng Kulon, Kec. Semarang Barat, Kota Semarang, Jawa Tengah 50145, Indonesia",50145,-6.9869664,110.3816331,3f55b7b7-26df-4452-b42a-fa6499896e5c,SMA Islam Al Azhar 15 Semarang,SMA,6a50de0d-5322-4bd9-af2b-c96149aca93e,2024/2025,60,81,14,16,11,30,5,10,2.3,84.75
0d9c03fa-d4bc-478a-b6e9-20dd0b5b1d81,Admin SMA Kebon Dalem,smakebondalem@yopmail.com,03712dab-b687-4938-a6c1-6b2d4075e9e0,"XF29+VCX, Jl. Durenan Indah, Mangunharjo, Kec. Tembalang, Kota Semarang, Jawa Tengah 50272, Indonesia",50272,-7.0477724,110.4686158,d9857ea3-0be9-4b2d-a06a-197b22651c8d,SMA Kebon Dalem,SMA,1e76fe65-b54f-4590-82c9-10a47ad37e6d,2024/2025,45,133,17,45,5,10,3,11,2.5,76.17
25f40bf7-83a0-4bd5-9779-37ceb910bb45,Admin Islamic Primary School Ma'had,islamicprimaryschoolma'had@yopmail.com,e02e5a91-6954-4b26-b076-a271f6120a1c,"Jl. Petolongan No.21, Purwodinatan, Kec. Semarang Tengah, Kota Semarang, Jawa Tengah 50137, Indonesia",50137,-6.9725188,110.4283717,cfcdb5ab-cbce-4adf-8ef2-7c215bb2126e,Islamic Primary School Ma'had,SD,7c90ac60-1447-4d91-9f8f-82c7adc25a3e,2024/2025,31,112,15,32,11,27,5,12,2.2,83.92
bcea8683-e1f8-42a5-990a-6e5f3911ad7c,Admin SDN Kalibanteng Kidul 01,sdnkalibantengkidul01@yopmail.com,3879a3c3-81b0-44f8-8768-ae44a54ff06b,"Jl. WR. Supratman X No.22-23, Kalibanteng Kidul, Kec. Semarang Barat, Kota Semarang, Jawa Tengah 50149, Indonesia",50149,-6.9903663,110.3851904,19fc0efe-ca55-4de8-aa7e-0f50d09e1a8c,SDN Kalibanteng Kidul 01,SD,9aa756a1-410e-4b35-b9fc-67eca03d5758,2024/2025,41,108,11,46,9,27,5,14,2.3,76.62
bad2572b-c6bb-4c8a-ba19-aa8cbcf1a354,Admin Sekolah Dasar Negeri Sendangguwo 01,sekolahdasarnegerisendangguwo01@yopmail.com,f77261b7-2858-493e-839a-4062a6eb2577,"Jl. Sawi No.13, Sendangguwo, Kec. Tembalang, Kota Semarang, Jawa Tengah 50273, Indonesia",50273,-7.011682,110.449826,67ea0ca2-c64a-4b51-9a66-1d0aa9452d3e,Sekolah Dasar Negeri Sendangguwo 01,SD,7adbbab2-c9b0-4d49-8c67-3936a6537bb5,2024/2025,44,145,8,59,7,23,7,9,1.8,82.54
e3c602fa-e053-4b69-8baf-b44888174ac7,Admin SD Islam Pesanggrahan,sdislampesanggrahan@yopmail.com,0eaed338-736a-41b8-bcd9-c65cbda37a24,"Jl. Progo III No.64, Mlatibaru, Kec. Semarang Tim., Kota Semarang, Jawa Tengah 50122, Indonesia",50122,-6.969195399999999,110.4388098,63d1f44f-47c5-4fd8-9da4-65f1faa9b4c7,SD Islam Pesanggrahan,SD,b586c8ed-579f-46ee-9004-19d0f093e6a1,2024/2025,55,105,15,34,10,23,9,12,1.4,78.47
61e54e84-a286-4880-bc82-318001a0206b,Admin Marsudirini Elementary School Gedangan,marsudirinielementaryschoolgedangan@yopmail.com,cd8a14ef-ec4c-4f40-acfd-5429eb510342,"Jl. Ronggowarsito No.8, Tj. Mas, Kec. Semarang Utara, Kota Semarang, Jawa Tengah 50174, Indonesia",50174,-6.9666882,110.4307767,646f85d2-9c85-46eb-ab0b-faf64fb04cea,Marsudirini Elementary School Gedangan,SD,17e4b9f4-3085-4e0a-a0bc-fea3b778e150,2024/2025,59,138,17,20,11,17,4,19,2.1,75.98
aa4a1821-370c-48e8-a863-cfa8a142000f,Admin SD PL Xaverius,sdplxaverius@yopmail.com,06130150-56c4-4b9f-9c4c-88753d28498f,"Jalan Dokter Cipto No.91, Sarirejo, Kec. Semarang Tim., Kota Semarang, Jawa Tengah 50124, Indonesia",50124,-6.9796789,110.4346705,73ed80c0-c9a7-4321-be18-a739f9a81b21,SD PL Xaverius,SD,5b557032-6ada-4acb-9f7c-5efe79a7972a,2024/2025,42,94,19,34,12,12,3,20,2.7,83.18
be4e6eaf-aae0-4df8-abd4-5aec849bd416,Admin SD Islam Al Azhar 29,sdislamalazhar29@yopmail.com,37a39dbd-da47-4aa0-9dfa-b4e6583df01f,"Jalan RM. Hadisoebeno Sosrowardoyo, X89P+3V9, Kelurahan Kedungpane, Kecamatan Mijen, Kedungpane, Kec. Mijen, Kota Semarang, Jawa Tengah 50212, Indonesia",50212,-7.032348799999999,110.3372443,8f1b509a-fd68-4864-bb21-63c4fb6414b2,SD Islam Al Azhar 29,SD,b8399782-7fab-403c-8e6b-98fd83c686bd,2024/2025,52,84,19,33,9,15,10,6,1.7,87.64
4a87773b-6a2a-494c-89e0-7d43cd5d3ab8,Admin State Primary School Tlogosari Wetan 01 Semarang,stateprimaryschooltlogosariwetan01semarang@yopmail.com,6e117b7d-b4e2-4d93-98fe-9c1ddbc995ff,"Jl. Syuhada Raya No.14, RT.01/RW.02, Tlogosari Wetan, Kec. Pedurungan, Kota Semarang, Jawa Tengah 50196, Indonesia",50196,-6.9879177,110.467199,7e7d3070-47ae-4ac7-beaa-ed6cda55f3db,State Primary School Tlogosari Wetan 01 Semarang,SD,5b66d7ec-ece3-41ea-b061-634cf809ecca,2024/2025,33,97,20,33,10,25,2,12,2.8,80.65
5827f8fa-c663-4045-abdc-242bda0ea526,Admin SD Muhammadiyah 12,sdmuhammadiyah12@yopmail.com,848a98d0-3e47-469c-b1bf-458972accb42,"Jl. Mintojiwo Dalam II No.2, Gisikdrono, Kec. Semarang Barat, Kota Semarang, Jawa Tengah 50149, Indonesia",50149,-6.988543,110.3866309,a108dcfe-f5e2-4326-896d-9027d0266bb6,SD Muhammadiyah 12,SD,694cb01e-c166-4426-a0ba-0bcca749eb3a,2024/2025,46,97,9,48,12,19,2,13,1.8,78.46
445eb81e-374e-4278-9826-f046e17a7cb0,Admin SD Peterongan,sdpeterongan@yopmail.com,6b96d55e-4c8e-4bcf-8b99-8c6a71f1c454,"Jl. Kompol Maksum No.292, Peterongan, Kec. Semarang Sel., Kota Semarang, Jawa Tengah 50242, Indonesia",50242,-6.9983948,110.4339451,82dc431b-cfcc-4fb4-a060-806a0d81954b,SD Peterongan,SD,37207437-77ad-466a-a484-cb524825d002,2024/2025,43,143,14,45,14,21,6,12,2.2,75.03
d69cec24-e232-47d6-bf78-a88ea533c42b,Admin SD Negeri Kalicari 01,sdnegerikalicari01@yopmail.com,d59f647d-c1c9-4e44-ba2d-112984c7257d,"2F55+85M, Jl. Supriyadi, Kalicari, Kec. Pedurungan, Kota Semarang, Jawa Tengah 50198, Indonesia",50198,-6.991667,110.457927,f3c484e9-774e-4bd8-9c9e-803e9e2a48ec,SD Negeri Kalicari 01,SD,be03ed72-2718-4110-ad7e-ce25b498f1c5,2024/2025,36,143,8,53,6,23,2,14,1.4,80.98
1c63c628-e803-4725-92c1-ed629d91feb7,Admin TK SD Kanisius Tlogosari Kulon,tksdkanisiustlogosarikulon@yopmail.com,1e7bc336-3602-42e3-83b0-1b58cb3062ca,"2FC3+6M4, Jl. Malangsari, Tlogosari Kulon, Kec. Pedurungan, Kota Semarang, Jawa Tengah 50196, Indonesia",50196,-6.9794953,110.454195,9f208fd6-1ea7-4ab5-93ec-468040ad7b09,TK SD Kanisius Tlogosari Kulon,SD,4d59487f-60d8-4517-aa99-477052e120e4,2024/2025,35,118,9,55,10,21,5,13,2.8,79.64
602077f9-848d-486e-8e31-8a0d8b373eca,Admin SD Negeri Srondol Kulon 01,sdnegerisrondolkulon01@yopmail.com,131fab1c-eacc-4204-a95a-ed114ea24cce,"Jalan Dr. Setiabudi No. 193 B, Srondol Kulon, Banyumanik, Srondol Kulon, Kec. Banyumanik, Kota Semarang, Jawa Tengah 50263, Indonesia",50263,-7.056013,110.414118,a7e266fe-1ef6-4cf5-a8e3-e75c2947ef71,SD Negeri Srondol Kulon 01,SD,24041ceb-6f69-4936-b03c-d57e909eeedf,2024/2025,36,134,16,30,8,10,7,11,1.5,83.63
bc2e3a94-0596-4362-8741-0d6534c13f26,Admin SD Ummul Quro' Semarang,sdummulquro'semarang@yopmail.com,9fc39a1a-3aa3-4be0-9704-1a4aba5fbc69,"Jl. Sekargading Barat No.1A, Kalisegoro, Kec. Gn. Pati, Kota Semarang, Jawa Tengah 50229, Indonesia",50229,-7.0573371,110.3906731,842d304d-a924-49a2-96f6-6aecff41430b,SD Ummul Quro' Semarang,SD,ddab3a78-be17-4830-ac81-0876b688aa24,2024/2025,47,115,7,40,9,27,3,13,2.1,83.74
1a72c3d7-fff9-433a-b5a3-385f9fb9b8be,Admin SD Muhammadiyah 16 semarang,sdmuhammadiyah16semarang@yopmail.com,5392606a-35f1-425a-8249-aca45708a103,"XCQF+7QJ, Jl. Singgalang Raya, Wonotingal, Kec. Candisari, Kota Semarang, Jawa Tengah 50252, Indonesia",50252,-7.0117822,110.4243767,ba76ec0c-db17-4cbd-9836-f57080a5d446,SD Muhammadiyah 16 semarang,SD,f6759c95-0f72-4895-990b-1dc856d7941b,2024/2025,39,128,7,40,11,29,3,11,2.7,84.5
62e41b1e-6291-4233-ab0d-79c8a11acfde,Admin SDN Kartini Semarang,sdnkartinisemarang@yopmail.com,df72bb08-d3df-495d-92c6-3cb8902dc5fa,"Jl. RA. Kartini No.151, Sarirejo, Kec. Semarang Tim., Kota Semarang, Jawa Tengah 50124, Indonesia",50124,-6.9849621,110.4340248,d89dec89-f7cb-4b65-9c98-34004165d8ef,SDN Kartini Semarang,SD,328d4bda-010c-4cd5-a5ee-563d0787d54f,2024/2025,43,97,13,29,10,15,5,5,2.2,76.07
1a7fb5a9-5a85-4f08-bac6-8dd7e5ceb049,Admin Pangudi Luhur Servatius Gunung Brintik Elementary School,pangudiluhurservatiusgunungbrintikelementaryschool@yopmail.com,aae15a65-fc42-4cb6-8d7e-6803f65d9eca,"Jl. DR. Sutomo kp.wonosari 8 No.4, Randusari, Kec. Semarang Sel., Kota Semarang, Jawa Tengah 50245, Indonesia",50245,-6.9870012,110.4099986,77403599-78b4-48db-b216-945aa5cd85dc,Pangudi Luhur Servatius Gunung Brintik Elementary School,SD,2a538449-27c8-407f-ab6e-74e84ab3006c,2024/2025,50,148,9,30,13,18,7,16,1.2,80.54
9a903e72-b4c7-4c40-8683-23f955b97b5e,Admin SDN TAMBAKREJO 01 ~ SEMARANG,sdntambakrejo01~semarang@yopmail.com,c2667bef-d6ff-4350-9a42-936437c986a2,"2CRW+R48, Tambakrejo, Gayamsari, Semarang City, Central Java 50174, Indonesia",50174,-6.9579726,110.4453192,bcb0098b-8e14-417c-9790-dd81a676d848,SDN TAMBAKREJO 01 ~ SEMARANG,SD,aca59d7a-cb38-4f24-a5dc-50748a12aff4,2024/2025,49,122,8,44,10,17,7,14,2.7,80.08
83e68b64-1a4e-43a6-a142-155d25b50a14,Admin SD Bukit Aksara,sdbukitaksara@yopmail.com,9fb9a28b-3ffb-44c6-b71a-51423a4efa26,"Jl. Prof. Soedarto No.40, Sumurboto, Kec. Banyumanik, Kota Semarang, Jawa Tengah 50269, Indonesia",50269,-7.0502902,110.4224383,ab228573-5f93-4d7d-9882-7cf669d7b022,SD Bukit Aksara,SD,46f27b31-f66f-4232-8839-058a4aee3979,2024/2025,59,119,17,21,10,30,7,13,1.7,88.39
50060471-2807-4054-b813-e36b19130bc6,Admin SD SUPRIYADI 02,sdsupriyadi02@yopmail.com,f6d599c7-f803-421b-9ab0-06350dbfe629,"Jl. Udan Riris III, Tlogosari Kulon, Kec. Pedurungan, Kota Semarang, Jawa Tengah 50196, Indonesia",50196,-6.9840569,110.46236100000002,cd14ab5f-37da-4b0e-91bc-55f8fa916396,SD SUPRIYADI 02,SD,01bc0845-055d-4545-bdc5-b807a90e530a,2024/2025,51,103,15,33,12,29,7,9,1.1,83.9
9fa8b259-f5fb-4c93-9a52-7fb708b64ccb,Admin SMA Negeri 1 Semarang,smanegeri1semarang@yopmail.com,c3177bd1-56a9-4273-81ba-4d366fe86c88,"Jl. Taman Menteri Supeno No.1, Mugassari, Kec. Semarang Sel., Kota Semarang, Jawa Tengah 50249, Indonesia",50249,-6.9919341,110.4188328,e4e805b9-081b-4192-8af3-689e2213c252,SMA Negeri 1 Semarang,SMA,449e09d2-751f-4f55-b42b-72898163a1ec,2024/2025,32,134,5,23,7,18,3,9,1.5,78.55
28782cb5-e148-416e-b850-4a2cc82f62cd,Admin SMA Teuku Umar Semarang,smateukuumarsemarang@yopmail.com,5ce79634-15ff-4bfd-b47a-6ee07b8669af,"Jl. Karangrejo Tengah IX No.99, Karangrejo, Kec. Gajahmungkur, Kota Semarang, Jawa Tengah 50234, Indonesia",50234,-7.029489099999999,110.4113747,c988cfbc-8dc6-4c42-aad6-934fc2195540,SMA Teuku Umar Semarang,SMA,4113c8e9-f73a-4fd1-b8cb-8b0a2d3558c0,2024/2025,59,133,19,20,11,13,6,10,2.4,84.72
d61d7f8a-3225-4fab-a6c5-1f49a882a77f,Admin 3 State Senior High School Semarang,3stateseniorhighschoolsemarang@yopmail.com,3db342da-8e28-401b-b3f9-e875f4732160,"Jl. Pemuda No.149, RT.5/RW.3, Sekayu, Kec. Semarang Tengah, Kota Semarang, Jawa Tengah 50132, Indonesia",50132,-6.980692299999999,110.4121075,92b0a214-3153-4209-bce5-410207a10a48,3 State Senior High School Semarang,SMA,4963f8b8-5ae9-41e7-bf8b-3d07fb8cfa57,2024/2025,36,95,19,50,13,25,8,9,2.3,89.72
434f7193-c747-4cd2-928f-d3295675541d,Admin SMA Negeri 5 Semarang,smanegeri5semarang@yopmail.com,330d5d51-223e-4a9f-8fcc-8c1d46122625,"Jl. Pemuda No.143, Sekayu, Kec. Semarang Tengah, Kota Semarang, Jawa Tengah 50132, Indonesia",50132,-6.9803051,110.4128539,a7417930-2d2f-4147-873a-27b78ce099d6,SMA Negeri 5 Semarang,SMA,045af7dd-f5c6-4ea6-8be2-344a182af146,2024/2025,41,127,16,58,7,20,5,15,2.5,89.9
56816b9e-971f-47d1-966e-2a874af22d49,Admin Loyola College High School,loyolacollegehighschool@yopmail.com,9ffd42be-e3ac-4314-a02f-cbbfc7693b82,"Jl. Karang Anyar No.37, Brumbungan, Kec. Semarang Tengah, Kota Semarang, Jawa Tengah 50135, Indonesia",50135,-6.9818766,110.4260285,050c9b91-87f4-4dfc-b147-f32853797a0c,Loyola College High School,SMA,b7e6b2c6-1b92-4436-8a4c-fe8f3b019b99,2024/2025,47,129,5,54,13,28,3,8,2.1,70.12
7a108cfd-0fcd-42b0-94cf-258ac7d684fc,Admin SMA Mardisiswa Semarang,smamardisiswasemarang@yopmail.com,a68530c5-2583-49bb-add8-d3e3e8e8d26a,"Jl. Sukun Raya No.45, Srondol Wetan, Kec. Banyumanik, Kota Semarang, Jawa Tengah 50263, Indonesia",50263,-7.065741399999999,110.4159866,cc613dd9-01c5-4f9a-9801-29faafa2879b,SMA Mardisiswa Semarang,SMA,da297780-bbb7-4fe6-a47f-4cd6603ba165,2024/2025,57,143,7,43,15,22,5,7,2.7,89.11
5bebc902-e2df-4578-b044-186271135430,Admin State Senior High School 14 Semarang,stateseniorhighschool14semarang@yopmail.com,9c28582e-c1cb-43cf-be03-67cfe95bd9df,"Jl. Kokrosono, RT.5/RW.13, Panggung Lor, Kec. Semarang Utara, Kota Semarang, Jawa Tengah 50177, Indonesia",50177,-6.958743800000001,110.40093,e7b38c91-207f-4c01-ac1a-ce0fc09ab12b,State Senior High School 14 Semarang,SMA,e01b1a53-f9d3-4b82-b9d7-b70b3c5a6daa,2024/2025,53,99,15,35,6,30,4,11,2.6,84.71
6020d8d6-692a-4f0f-8bc2-d9d095f23303,Admin 6 State Senior High School Semarang,6stateseniorhighschoolsemarang@yopmail.com,f1765b3e-7ec1-49e4-bc9b-5b880147f4f2,"Jl. Ronggolawe Bar. No.4, Gisikdrono, Kec. Semarang Barat, Kota Semarang, Jawa Tengah 50149, Indonesia",50149,-6.981764399999999,110.3892266,212c6b55-b912-457b-bd75-aeb7c459560d,6 State Senior High School Semarang,SMA,860cef28-5fa7-4c06-8ac2-00c13467940d,2024/2025,59,82,7,28,8,10,4,15,1.8,88.05
de70be7b-c3fe-4a2a-82ff-096d3426fbc3,"Admin 7th State Senior High School, Semarang",7thstateseniorhighschoolsemarang@yopmail.com,48b7eacc-cec2-494e-b722-1d30ac9bcef4,"X9PC+PFQ, Jl. Untung Suropati, Bambankerep, Kec. Ngaliyan, Kota Semarang, Jawa Tengah 50182, Indonesia",50182,-7.013156599999999,110.3712499,79e34977-499d-460a-82cd-0476f2f44f14,"7th State Senior High School, Semarang",SMA,d94f04b2-745a-49db-9cef-b859eba91bb7,2024/2025,39,104,8,54,9,19,6,7,2.5,71.57
630f8579-37ef-46ae-8c6a-6f4b53aecc91,Admin SMA TERBAIK SEMARANG - SMA Kristen Terang Bangsa,smaterbaiksemarang-smakristenterangbangsa@yopmail.com,38b1fd09-5e3b-43e5-b572-1278899d9e6a,"Kompleks, Jalan Arteri Utara Jl. Grand Marina No.8, Kota Semarang, Jawa Tengah 50144, Indonesia",50144,-6.954723899999999,110.3925538,2f37b574-d0ef-4f33-b94b-44f5631abf5b,SMA TERBAIK SEMARANG - SMA Kristen Terang Bangsa,SMA,abc6966e-feab-42ce-ad70-2883b3c8f9ac,2024/2025,45,129,20,47,15,29,7,5,1.7,88.63
11dcc9bc-1a64-4283-acf8-d2811d01d295,Admin SMA Negeri 15 Semarang,smanegeri15semarang@yopmail.com,4cf7b01f-e40c-4127-81f0-06d91bccf5c9,"Jl. Kedungmundu No.34, Sambiroto, Kec. Tembalang, Kota Semarang, Jawa Tengah 50276, Indonesia",50276,-7.023001799999999,110.4633847,856d88bc-f28b-472b-80b8-221eb974284b,SMA Negeri 15 Semarang,SMA,be98e1a2-6a6e-4487-9953-b37b81f77313,2024/2025,42,109,20,44,11,11,3,13,1.1,74.11
e03fb928-bc44-4673-9909-7f0b86e8a601,Admin SMA Negeri 10 Semarang,smanegeri10semarang@yopmail.com,14c4f390-5299-48f7-929e-eb15c72d8c10,"Jl. Padi Raya No.16, Gebangsari, Kec. Genuk, Kota Semarang, Jawa Tengah 50117, Indonesia",50117,-6.963082,110.4669271,bf32c69c-0a20-428a-9f68-58b98bbc010d,SMA Negeri 10 Semarang,SMA,97deca12-885c-4b33-8c0e-d5009358edc0,2024/2025,57,130,20,20,11,26,10,18,1.5,76.88
75ec8bf8-2d39-4fb0-a539-78d550b7ef57,Admin SMAN 11 Semarang,sman11semarang@yopmail.com,0986bb43-eea3-4db0-bb13-528c113fc735,"Gg. XIV, RT.01/RW.01, Lamper Tengah, Kec. Semarang Sel., Kota Semarang, Jawa Tengah 50248, Indonesia",50248,-7.005974999999999,110.446476,1d358f3a-013e-4552-98e9-6d4e4f9ce714,SMAN 11 Semarang,SMA,51dcd6b1-8751-4979-99e9-1e4b237aaede,2024/2025,59,121,11,15,13,15,8,7,2.8,87.93
2aa6e0f3-5654-47cd-8181-65a706d5c239,Admin Islamic High School Sultan Agung 1 Semarang,islamichighschoolsultanagung1semarang@yopmail.com,da747427-9360-4037-9c65-ef0a488db1a5,"Jl. Mataram No.657, Wonodri, Kec. Semarang Sel., Kota Semarang, Jawa Tengah 50242, Indonesia",50242,-6.9970369,110.4311142,4fe2b445-0382-4d0e-a3bc-0ea77d064c1d,Islamic High School Sultan Agung 1 Semarang,SMA,128cb6c5-95fe-41f0-833d-d93c59225281,2024/2025,41,114,10,41,9,11,2,8,1.1,89.31
93ea0a3f-8eca-482c-89d9-8246c0250be9,Admin SMA Negeri 9 Semarang,smanegeri9semarang@yopmail.com,cb943ada-83b6-459c-990b-0d7870ef34d3,"Jl. Cemara Raya, Padangsari, Kec. Banyumanik, Kota Semarang, Jawa Tengah 50267, Indonesia",50267,-7.071196199999999,110.4232822,e8a4e50f-2363-4f27-8c45-fa91a573919f,SMA Negeri 9 Semarang,SMA,d29ff756-762b-46dd-8c0d-e6ffd5cef930,2024/2025,49,147,12,58,6,19,3,13,2.2,86.41
c743ee2b-69ee-46eb-b11d-13f885335df4,Admin SMA Kesatrian 1,smakesatrian1@yopmail.com,a308c7dd-0f8c-4a0e-acff-d8a3cae2f9f8,"Jl. Pamularsih Raya No.116, Gisikdrono, Kec. Semarang Barat, Kota Semarang, Jawa Tengah 50149, Indonesia",50149,-6.987489999999999,110.3860814,2b57af88-7ee3-414c-a827-66b24e8ea08b,SMA Kesatrian 1,SMA,664e2e5b-0777-4033-b7d3-c041da755f8c,2024/2025,52,101,18,51,15,16,4,20,1.3,72.45
e5d71675-5baf-4cbb-a599-2fa04e37699a,Admin SMA Negeri 4 Semarang,smanegeri4semarang@yopmail.com,973f5652-1db6-451e-b5f5-7a998e5cfa17,"WCG7+VJ3, Jl. Kr. Rejo Raya No.12A, Srondol Wetan, Kec. Banyumanik, Kota Semarang, Jawa Tengah 50263, Indonesia",50263,-7.0730667,110.4140618,54defd4a-fe37-433d-8346-81c9fab5765d,SMA Negeri 4 Semarang,SMA,4d8b479b-d041-4be1-a426-7ed046ca7fef,2024/2025,54,81,5,21,5,20,4,17,2.1,87.76
80606041-32e9-4793-b63c-f879ab621964,Admin SMA Muhammadiyah 1 Semarang,smamuhammadiyah1semarang@yopmail.com,a072ee53-50ce-423f-97d4-a2cbedbe9806,"Jl. Tentara Pelajar No.91, Jomblang, Kec. Candisari, Kota Semarang, Jawa Tengah 50256, Indonesia",50256,-7.0102201,110.4392541,84006c3c-e1ce-4d2d-bcf0-acba3520bcb3,SMA Muhammadiyah 1 Semarang,SMA,bd5bc335-155b-42d4-bb93-a51bad44bbf9,2024/2025,47,125,12,52,7,25,8,5,2.3,78.35
